restaurant_name,location_name,street,city,state,zipcode,coordinate,google_place_id,Error?
25 Lusk,SOMA,25 Lusk St,San Francisco,CA,94107,0101000020E610000029DCE1653C995EC0FE8F5DB3A6E34240,ChIJGTt4QUF_j4AR44nz1TQkoKc,
5 Acres,Rockefeller Center,"30 Rock, Rink Level",New York,NY,10112,0101000020E610000009D3F776B67E52C03C1F538A38614440,ChIJj0EtEZRZwokRYi9Wk-lvJUU,
5ive Spice,Gramercy,363 3rd Ave,New York,NY,10016,0101000020E6100000DDDF91B3CC7E52C0EA61F7CBD95E4440,ChIJg_hIprRZwokRG4Dms5riUOU,
5ive Spice,SoHo,227 Mulberry St,New York,NY,10012,0101000020E61000002B3C1EE9C27F52C038925F9A7D5C4440,ChIJO1_22AhZwokRm6t3InR_YCQ,
6 NYC,Carroll Gardens,481 Court St,Brooklyn,NY,11231,0101000020E6100000E5553706E87F52C0A2A76C9F92564440,ChIJDfRavFtbwokRijMBw1NobfM,
8282,Lower East Side,84 Stanton St,New York,NY,10002,0101000020E6100000FF791A30487F52C00B90B28F5F5C4440,ChIJNaUIchtZwokRHI8Pk3mEz1Y,
82 Queen,French Quarter,82 Queen St,Charleston,SC,29401,0101000020E6100000D76D50FBADFB53C0E179A9D898634040,ChIJDZ7DvBF6_ogRhOZ4IH9ehhE,
886,East Village,26 St Marks Pl,New York,NY,10003,0101000020E6100000A796ADF5457F52C0F7065F984C5D4440,ChIJKbjLf5xZwokRYa6BYJg0Xns,
Accidental Bar,Alphabet City,98 Loisaida Ave,New York,NY,10009,0101000020E6100000F82AF1D9A77E52C0EA176670AC5C4440,ChIJUeg8neFZwokRjTD4oCwTPGk,
Ace Eat Serve,Uptown,501 E 17th Ave,Denver,CO,80203,0101000020E61000003C45B357C43E5AC0301812E62CDF4340,ChIJu-mW5St5bIcRmFpCS-fM6MA,
Ace's Pizza,Rockefeller Center,30 Rockefeller Center,New York,NY,10112,0101000020E61000007DAFFE28A97E52C0AD6774C32C614440,ChIJvcKC7PxZwokRYgo9FMn7HZ8,
Ace's Pizza,Williamsburg,637 Driggs Ave,Brooklyn,NY,11211,0101000020E6100000B6549401567D52C05C636F2D865B4440,ChIJMTXf1ChZwokR2WKzrREy78s,
Aftermath,Ridgewood,16-80 Madison St,Ridgewood,NY,11385,0101000020E61000007F610637147A52C04C48C6C5AC594440,ChIJWUxCcGFdwokRB1mscVCGvyo,
Albert's Bar,Murray Hill,140 E 41st St,New York,NY,10017,0101000020E61000008EB2217D787E52C09771E2E20F604440,ChIJTUnFcYpZwokRnDeckKVR3Nw,
Alcove Market,Harleston Village,320 Broad St Suite 155,Charleston,SC,29401,0101000020E6100000CD5CE0F258FC53C0C1C58A1A4C634040,ChIJp0iulmp7_ogRjrA23hLK_Fs,
Alidoro,Bryant Park,18 E 39th St,New York,NY,10016,0101000020E61000004C18FAF0CC7E52C035204FF222604440,ChIJyUQIwQBZwokRgIql4YCchfA,
Alidoro,Long Island City,28-17 Jackson Ave,Long Island City,NY,11101,0101000020E6100000CF73EAAE137C52C068C30A30E45F4440,ChIJFcjcVwBZwokRTSpYlpcfTi8,
Alidoro,Midtown,383 W 31st St,New York,NY,10001,0101000020E6100000B28E2384BB7F52C0982D3A763D604440,ChIJr5odo75ZwokR4AhVgTmpHC4,
Alidoro,Rockefeller Center,1 Rockefeller Plaza Concourse level,New York,NY,10020,0101000020E61000000AA99B61A57E52C0EBA5319B09614440,ChIJrYlZAHVZwokRGSjwdeMjaac,
Alidoro,The Hugh,157 E 53rd St,New York,NY,10022,0101000020E61000002EF544911B7E52C0A6DCA1A61B614440,ChIJFa7a9uFZwokR1JWN1NOyzaM,
ALL BLUES,Tribeca,87 Walker St,New York,NY,10013,0101000020E6100000D5B14AE9198052C026C86361E35B4440,ChIJdROsbwBbwokRHl54aM_rAsc,
Alma Negra,Park Slope,494 4th Ave,Brooklyn,NY,11215,0101000020E61000002511C3C2637F52C024F020289F554440,ChIJjzh0ftJbwokRIFioM_VxHNQ,
Almond,Bridgehampton,1 Ocean Rd,Bridgehampton,NY,11932,0101000020E6100000ED6A4D4E481352C07D602239F4774440,ChIJX4bnq9i96IkRMhnW2mI-AIQ,
Alora Coastal Mediterranean,Alora Coastal Mediterranean,Pier 3,San Francisco,CA,94105,0101000020E6100000E5428AA658995EC042C2418C21E64240,ChIJ20bNEACBhYARtsTcSrSPFdU,
Alphabet City Beer Co.,Lower East Side,96 Loisaida Ave,New York,NY,10009,0101000020E61000001915A575A67E52C072071784A75C4440,ChIJWaWbwHlZwokRj1wHkvB84zE,
Altair,Midtown,351 W 38th St,New York,NY,10018,0101000020E61000001EC6A4BF977F52C0EECC04C3B9604440,ChIJIRWJmBVZwokRZA5hGN68TgA,
Ambler,LoDo,1801 Wewatta St,Denver,CO,80202,0101000020E61000009DA85B2CFB3F5AC0944440CFB0E04340,ChIJfQpFkDx5bIcRGnDZ-s_yQnE,
Ambra,West Village,569 Hudson St,New York,NY,10014,0101000020E6100000A2B2614D658052C09F03CB11325E4440,ChIJW0-RNpdZwokRQYkOS0HTtwM,
Amelie SF,Polk Gulch,1754 Polk St,San Francisco,CA,94109,0101000020E6100000C5D0A057F29A5EC069458AB784E54240,ChIJ88G-quuAhYAR7bj0Yhr8gwI,
Amélie UWS,Upper West Side,566 Amsterdam Ave,New York,NY,10024,0101000020E61000006AB52C045E7E52C0363E93FDF3644440,ChIJBV27hoNYwokR20JihLuQdUs,
Amen Street Fish & Raw Bar,French Quarter - Charleston,205 E Bay St,Charleston,SC,29401,0101000020E610000079A3A02559FB53C0B8C83D5DDD634040,ChIJZ21LMAx6_ogRO1cje2Ji56c,
Andros Taverna,Logan Square,2542 N Milwaukee Ave,Chicago,IL,60647,0101000020E610000098BED7101CED55C0FD4AE7C3B3F64440,ChIJWfaiPh_ND4gRaRT5k6Wp24g,
Anton's,Anton's,570 Hudson St,New York,NY,10014,0101000020E61000006A6D75945E8052C0F07673A72A5E4440,ChIJvdgj3uVZwokRDFVNZGAg43U,
Aqua,Flatiron,902 Broadway,New York,NY,10010,0101000020E6100000C4E0AB67527F52C0ACCB84BAA35E4440,ChIJHQFj19tZwokRZLUlxxZmz2Q,
Aquarelle,Aquarelle,47 Avenue B,New York,NY,10009,0101000020E6100000223F7672E17E52C001DE02098A5C4440,ChIJsSGRfXhZwokROD3euzl_76s,
Arcana,Mission,2512 Mission St,San Francisco,CA,94110,0101000020E61000001D0F6C4BD39A5EC04298DBBDDCE04240,ChIJyf4Rywl_j4ARyOJZrnvV0Wc,
Ariari,East Village,119 1st Ave,New York,NY,10003,0101000020E610000086702DDC177F52C05B809D79175D4440,ChIJhUDJFUVZwokRkNERZsyOxWo,
Artesano,Tribeca,90 Chambers St Unit A,New York,NY,10007,0101000020E610000027929ED8798052C06BDE27FD735B4440,ChIJv3vgwFZbwokRwP07bRgRYdM,
Arthur and Sons,Murray Hill,145 East 39th St.,New York,NY,10016,0101000020E61000008BD11CEA7F7E52C088898E17F05F4440,ChIJ5wRLNwBZwokRCRy7BYuPh6w,
Arthur and Sons,West Village,38 8th Ave,New York,NY,10014,0101000020E6100000E73E8767428052C0BD340EDA7B5E4440,ChIJw2RCuSZZwokRVt7nWZNROm0,
Asador Bastian,Asador Bastian,214 W Erie St,Chicago,IL,60654,0101000020E61000007EC68503A1E855C00190C99871F24440,ChIJk8Z5cdstDogRdMPc0yBZB5M,
Asano,Upper East Side,322 East 86th St,New York,NY,10028,0101000020E6100000891CC7B4DB7C52C05B26C3F17C634440,ChIJZ0hCG2pZwokR-OrHd4Gtt3w,
Ash'Kara,LoHi,2005 W 33rd Ave,Denver,CO,80211,0101000020E61000007BA6F2D1BD405AC0611E8D9EB6E14340,ChIJw9FqUex4bIcRpV-3fHDv2TQ,
Attaboy,Lower East Side,134 Eldridge St,New York,NY,10002,0101000020E61000000D52F014727F52C00A12DBDD035C4440,ChIJDbQMBIdZwokRVS4L8B8V5SA,
AURA Tapas & Cocktail Bar,East Village,111 1st Ave,New York,NY,10003,0101000020E610000010B056ED1A7F52C0F42675B80C5D4440,ChIJ5QOQdQtZwokRSy16jOl97Uc,
Bad Roman,Columbus Circle,3rd floor,New York,NY,10019,0101000020E6100000C3938195ED7E52C0763CD63064624440,ChIJG0fkfuJZwokRqmAxXTpYP2I,
Baguette Magic,James Island,792 Folly Rd Ste. A,Charleston,SC,29412,0101000020E6100000BF0AF0DDE6FD53C096236420CF5E4040,ChIJcRYyVQp5_ogRzddEPU6O5fA,
Baguette Magic,West Ashley,1028 Wappoo Rd,Charleston,SC,29407,0101000020E610000037DDB243FC0054C02444F98216664040,ChIJ3fhrj2V7_ogRHJRlSVyLbGQ,
Bangkok Supper Club,West Village,641 Hudson St,New York,NY,10014,0101000020E6100000FF7403055E8052C07C9A9317995E4440,ChIJvduhDjVZwokReg77D1pNQaQ,
Banzarbar,Nolita,2 Freeman Alley,New York,NY,10002,0101000020E610000079386B05847F52C01C654D6C6A5C4440,ChIJU74O14VZwokRQ-wPmjfTERE,
bar56,Dumbo,53 Water St,Brooklyn,NY,11201,0101000020E6100000157B584F857F52C09C80C96E0B5A4440,ChIJ5SzimXpbwokRR2U_8IFONFw,
Barbuto,West Village,113 Horatio St,New York,NY,10014,0101000020E6100000DF18B1A5978052C0E234880A975E4440,ChIJVXheK_pZwokRDNLoQ0JK40M,
Bar Dough,LoHi,2227 W 32nd Ave,Denver,CO,80211,0101000020E61000009B9B25B7DC405AC069C4CC3E8FE14340,ChIJrRxEypN4bIcR_GfxUkiSeCs,
Bar Enzo,Long Island City,10-15 43rd Ave 2nd Fl,Long Island City,NY,11101,0101000020E6100000F5A0A014AD7C52C0A662635E47604440,ChIJD_uCNtNZwokR8uyJSOjMuZQ,
Bar Francis,Clinton Hill,810 Fulton St,Brooklyn,NY,11238,0101000020E610000005589A4AF57D52C076F97BCE82574440,ChIJH2vRDZBbwokRR9fWYeKp_BE,
Bar Iris,Russian Hill,2310 Polk St,San Francisco,CA,94109,0101000020E6100000F9646AB7029B5EC04B862D8727E64240,ChIJQ3FRFZ-BhYAR3Rt6OXN6hSo,
Bar Madonna,Williamsburg,367 Metropolitan Ave,Brooklyn,NY,11211,0101000020E6100000225DE0162A7D52C0D7BED8E66B5B4440,ChIJUWhXmjpZwokRjvRZ1_vjTqI,
Bar Moga,SoHo,128 W Houston St,New York,NY,10012,0101000020E610000072252134128052C0CB217F732D5D4440,ChIJRy7Z-I1ZwokRQm17a6QDJ6E,
Barn Joo,Union Square,35 Union Square W,New York,NY,10003,0101000020E6100000E2395B40687F52C006BCCCB0515E4440,ChIJQ7XpyqNZwokRQpVfvGEViWM,
Bar Primi,NoHo,325 Bowery,New York,NY,10003,0101000020E6100000B680D07A787F52C0BCA1DFADE25C4440,ChIJSW8U34RZwokR-UhuJkjLDvk,
Bar Revival,Lower East Side,161 Ludlow St,New York,NY,10002,,ChIJi7he5vpZwokRpyaPR5yZplY,
Bar Six,Greenwich Village,502 6th Ave,New York,NY,10011,0101000020E61000007657D17AD37F52C0D249A58E445E4440,ChIJ9bgCzJdZwokRvm_6RoQ8edg,
Bar Sprezzatura NYC,Midtown,251 W 48th St,New York,NY,10036,0101000020E610000004E09F52257F52C01805662A69614440,ChIJNVkbEwBZwokRcQJBrkU_Wuo,
Bar Sprezzatura SF,Financial District,One Maritime Plaza 300 Clay St #100,San Francisco,CA,94111,0101000020E6100000EE0A7DB08C995EC06AA67B9DD4E54240,ChIJNVkbEwBZwokRcQJBrkU_Wuo,
Basic Kitchen,Downtown Charleston,82 Wentworth St,Charleston,SC,29401,0101000020E61000007AC37DE4D6FB53C02CBAF59A1E644040,ChIJNz0pmhN6_ogR5laaX7NUnVs,
Bati,Clinton Hill,1057 Fulton St,Brooklyn,NY,11238,0101000020E61000007F5D122A697D52C02612EDBF4F574440,ChIJYXEosLFbwokRZO204ZitA1Q,
Beautiful South,Cannonborough,128 Columbus St,Charleston,SC,29403,0101000020E61000006840BD1935FC53C009DFFB1BB4654040,ChIJrfi1NJ17_ogRVSM0K9wWC1c,
Beer Street South,Prospect Heights,550 Vanderbilt Ave,Brooklyn,NY,11238,0101000020E610000055467C9AF37D52C04EABB0FB2B574440,ChIJEVFkpFtbwokR5ItXs2oJnvk,
Bee's Knees,Williamsburg,65 N 7th St,Brooklyn,NY,11249,0101000020E61000001423551C837D52C056D75CFC2B5C4440,ChIJ__96vgVZwokRgkcY1cmk_VM,
Bella Luna Restaurant,Upper West Side,574 Columbus Ave,New York,NY,10024,0101000020E61000001935046C2C7E52C0EDC616DDD5644440,ChIJkf3PqpxYwokRZlk0ie5vk2c,
Benjamin Prime,Midtown East,23 E 40th St,New York,NY,10016,0101000020E61000006EBE11DDB37E52C0F4F928232E604440,ChIJOdx0HQFZwokRzHFDS_GXQxk,
Benjamin Steakhouse,Midtown East,52 East 41st Street,New York,NY,10017,0101000020E61000004A7D59DAA97E52C08F519E7939604440,ChIJ3TH9CwFZwokRIvNO1SP0WLg,
Bergerac,SoMa,316 11th St,San Francisco,CA,94103,0101000020E61000008BDEA9807B9A5EC005C1E3DBBBE24240,ChIJ5wZMMyZ-j4ARDpT0d0kIx7A,
Berkeley’s,Hampton Park Terrace,624 1/2 Rutledge Ave,Charleston,SC,29403,0101000020E61000004D2CF015DDFC53C017B9A7AB3B664040,ChIJZ8LPDn57_ogRtfAHxwB8VdI,
Bernie's,Noe Valley,3966 24th St,San Francisco,CA,94114,0101000020E61000006D4DF1FF979B5EC017B99B383AE04240,ChIJ37ticRN-j4ARnoZeLusW0bI,
Besharam,Potrero Hill,1275 Minnesota St,San Francisco,CA,94107,0101000020E61000009DB20C32ED985EC0BE57B7BC92E04240,ChIJXdSpkLp_j4AR_myZWVcbVxc,
BierWax,Prospect Heights,556 Vanderbilt Ave,Brooklyn,NY,11238,0101000020E6100000B01FBD3CF87D52C0DD8EBAE70A574440,ChIJk9RJNaRbwokRtMPbGlZp3uc,
Bin Bin Sake,Williamsburg,29 Norman Ave #100,Brooklyn,NY,11222,0101000020E6100000A452EC681C7D52C0C0CDE2C5C25C4440,ChIJKXGbJHBZwokR2dbFNdN0FBU,
Binondo,Chinatown,50 E Broadway,New York,NY,10002,,ChIJJ2QQsQZbwokRSzQz15m3FWc,
Birdee,Williamsburg,316 Kent Ave,Brooklyn,NY,11249,0101000020E6100000D63140A7E87D52C051CF8FB16E5B4440,ChIJJbmnn01ZwokRRBmMCKIY8K8,
Bird on the Roof,Montauk,47 S Elmwood Ave,Montauk,NY,11954,0101000020E6100000EBFAAA016FFC51C031618FE44D844440,ChIJG3YZb5RT74kRsMwlDBs6FjQ,
Bistro Ete,Water Mill,760 Montauk Hwy,Water Mill,NY,11976,0101000020E6100000DBF813958D1652C0011E0714A0744440,ChIJBb_d_piV6IkRzFwzWqvbZcI,
Blackbird,Blackbird,324 Lafayette St,New York,NY,10012,,,
Blackbird Club at AJAX Tavern,Aspen,685 E Durant Ave,Aspen,CO,81611,0101000020E61000009D6516A158B45AC0C927BFA0E0974340,ChIJRXICg9g7QIcRBB8na-Y0PqE,
Blackbird Club at Parcelle,Greenwich Village,146 W Houston St,New York,NY,10012,0101000020E6100000D6F3F54C1E8052C032B13CC8365D4440,,
Black Seed Bagels,Nolita,170 Elizabeth Street,New York,NY,10012,0101000020E6100000CD5B751DAA7F52C0419DF2E8465C4440,ChIJV1BBkp1ZwokRpjqvV01uiqg,
Blackwood,Blackwood,2150 Chestnut St,San Francisco,CA,94123,0101000020E6100000E312EC64159C5EC0D68926AB7DE64240,ChIJkfP43NaAhYARkQtRUGeNnlY,
BlindPig,Tenderloin,1113 Polk St,San Francisco,CA,94109,0101000020E61000009C040549DD9A5EC08D1620BFC4E44240,ChIJ7SlawgSBhYARbP6ZoPjNHMA,
Blind Tiger,West Village,281 Bleecker St,New York,NY,10014,0101000020E61000002181E350348052C0F1C2278FB65D4440,ChIJWW4LoZNZwokRFOD1017tTZc,
BLT Prime,Upper East Side,1032 Lexington Ave,New York,NY,10021,0101000020E610000029F8B7158C7D52C02D3C1EE9C2624440,ChIJkWzZwb9ZwokRY7IXGGtsH0s,
Blue Plate,Mission,3218 Mission St,San Francisco,CA,94110,0101000020E610000066D993C0E69A5EC0A3E6ABE463DF4240,ChIJ7d1kDkN-j4ARLXO5JZwg7NI,
Blue Whale,Marina,2033 Union St,San Francisco,CA,94123,0101000020E6100000172FA849AE9B5EC05AC2F4D411E64240,ChIJyeXEUEyBhYARWEs70AP8J4I,
Bobwhite Counter,Alphabet City,94 Avenue C,New York,NY,10009,0101000020E61000007D95CEBEA37E52C077AEF43DB35C4440,ChIJhb1Sx3lZwokR7-zaifOkCwo,
Bobwhite Counter,Jersey City,150 Warren St,Jersey City,NJ,7302,0101000020E6100000A08A42238B8252C0CC36A5D6645B4440,ChIJN5aJDSdRwokRYvp9FA96GX4,
Bobwhite Counter,Long Island City,28-17 Jackson Ave,Queens,NY,11101,0101000020E61000003094C3310F7C52C075C0A49121604440,ChIJ6d5LokpZwokRlrAwll2NArU,
Bobwhite Counter,Union Square,124 E 14th St,New York,NY,10003,0101000020E6100000496F91F6487F52C01932593A075E4440,ChIJY8YwP65ZwokRH5YcEM4Ai4c,
Bodega (Coffee Counter),Downtown,23 Ann St,Charleston,SC,29403,0101000020E61000006279A1CAFAFB53C060C0817F00654040,ChIJV_qOlyJ7_ogRZUQr84eFa28,
Bodega (Coffee Counter),Mt. Pleasant,414 W Coleman Blvd,Mt Pleasant,SC,29464,0101000020E61000006475ABE7A4F853C0CC26C0B0FC654040,ChIJ2Tz5Shhx_ogRWzT5SMTCUTo,
Bodega (Dine In),Downtown Charleston,23 Ann St,Charleston,SC,29403,,ChIJV_qOlyJ7_ogRZUQr84eFa28,
Bodega SF,Bodega SF,138 Mason St,San Francisco,CA,94123,0101000020E6100000E1F890A6309A5EC094F540D076E44240,ChIJh26QnF1_j4AR3B7n6vAHjHQ,
Bon Banh Mi,Mt. Pleasant,1100 Oakland Market Rd,Mt Pleasant,SC,29466,0101000020E61000002C62D8614CF253C001158E20956E4040,ChIJ-8xLhPVt_ogRX7YnQGJ0t8Y,
Bon Banh Mi,South Mt. Pleasant,1440 Ben Sawyer Blvd #1404,Mt Pleasant,SC,29464,0101000020E61000000C25EE0CAEF653C0B092EA9678654040,ChIJcUCmAw1x_ogR_yzBMrmpL6o,
Bonnie's,Williamsburg,398 Manhattan Ave,Brooklyn,NY,11211,0101000020E61000001502B9C4917C52C004CAA65CE15B4440,ChIJbQc9ABZZwokRMAK6C-Ekxg4,
Brass,NoMad,7 E 27th St,New York,NY,10016,0101000020E6100000507FAC962A7F52C0F4BAEAA6395F4440,ChIJ81FEDgBZwokR6hAwPtR8c-o,
Breeze,Greenpoint,595 Manhattan Ave,Brooklyn,NY,11222,0101000020E61000008BA5E066D77C52C066A474968D5C4440,ChIJayMXxXBZwokRq41Uj462dS0,
Brenda's French Soul Food,Tenderloin,652 Polk St,San Francisco,CA,94102,0101000020E6100000BA13ECBFCE9A5EC03D5FB35C36E44240,ChIJZ9s5SJeAhYARIX3Fxl6oj6c,
Brenda's Meat & Three,NOPA,919 Divisadero St,San Francisco,CA,94115,0101000020E61000004E250340159C5EC02235ED629AE34240,ChIJBZ2nB7GAhYAR1BUmlCHczaw,
Briscola,Crown Heights,798a Franklin Ave,Brooklyn,NY,11238,0101000020E6100000E681A7264F7D52C097658442E9554440,ChIJD6W7CwBbwokRwO5z7BMo7-M,
Brooklyn Brewery,Williamsburg,79 N 11th St,Brooklyn,NY,11249,0101000020E61000001406835C4B7D52C0149F720A6A5C4440,ChIJUaAuMl1ZwokRt0-S_ynnRtc,
Brooklyn French Bakers,Carroll Gardens,273 Columbia St,Brooklyn,NY,11231,0101000020E6100000D8A5DF833B8052C0263186CD64574440,ChIJr5AmcG9bwokR4WQblfK0Nuw,
Brooklyn French Bakers,Park Slope,510 2nd St,Brooklyn,NY,11215,0101000020E61000002CAEE207957E52C0CE97B013E1554440,ChIJ6c4obKdbwokRQ85KP3H8zVQ,
Brooklyn Kolache,Bedford-Stuyvesant,520 DeKalb Ave,Brooklyn,NY,11205,0101000020E6100000FD7A6B062B7D52C03A0A4AAB69584440,ChIJe1O4wpRbwokRu8RmeM2Xji4,
Brown Dog Deli,Harleston Village,225 Calhoun St,Charleston,SC,29401,0101000020E6100000CC0BB08F4EFC53C0745FCE6C57644040,ChIJHRq3Sw56_ogRsVgGoXhhptQ,
Burgers and Beer,West Village,170 West 4th Street,New York,NY,10014,0101000020E610000033F8905F188052C0F38C880DBB5D4440,ChIJz1tFP_9ZwokR1NewYt9iemw,
Bus Stop,Pacific Heights,1901 Union St,San Francisco,CA,94123,0101000020E6100000DA03ADC0909B5EC03CA06CCA15E64240,ChIJiyfOTtuAhYARdqz7WudgtMU,
Butcher's Daughter,Nolita,19 Kenmare St,New York,NY,10012,0101000020E610000056E6F71AA97F52C002CCA1C63E5C4440,ChIJiYsEnohZwokR8oZK_TgmSjY,
Butcher's Daughter,Nolita - Market,19 Kenmare St,New York,NY,10012,0101000020E6100000B3E4F7AFAA7F52C0B079CBC5425C4440,ChIJiYsEnohZwokR8oZK_TgmSjY,
Butcher's Daughter,Williamsburg,271 Metropolitan Ave,Brooklyn,NY,11211,0101000020E61000005073A69D577D52C03502365A7F5B4440,ChIJ3UuR-ONZwokRrKPqaJPKbxw,
Cafe Blackbird at FarCon,FarCon,39 S 5th St,Brooklyn,NY,11249,,,
Cafe Boulud,Upper East Side,100 E 63rd St,New York,NY,10065,0101000020E61000002D944C4EED7D52C0560DC2DCEE614440,ChIJCcAxi5RYwokRdUqdw5_FHIk,
Cafe Colette,Williamsburg,79 Berry St,Brooklyn,NY,11249,0101000020E6100000BC8AE8224B7D52C0DA81E060215C4440,ChIJBanVDl1ZwokROc3C9FpKZ78,
Cafe Llama,The Spiral,66 Hudson Blvd,New York,NY,10001,,ChIJ1UFNgYNZwokRcHhfzdnHmpc,
Cafe Mado,Prospect Heights,791 Washington Ave,Brooklyn,NY,11238,0101000020E6100000E62D0DB29B7D52C07EDAF2DB21564440,ChIJrwTqaQBbwokRaK-iQfAWdG4,
Cafe Ornithology,Bushwick,1037 Broadway,Brooklyn,NY,11221,0101000020E61000009D3935E1A87B52C0A504B3F803594440,ChIJJUQ7iB9dwokRbAA0O_h71C4,
Caffe Sport,North Beach,574 Green St,San Francisco,CA,94133,0101000020E61000006D84DA9D269A5EC0E279FC9461E64240,ChIJB60QZ_GAhYARnFPG-x5vDxE,
California Kahve,California Kahve,320 Bowling Green Dr,San Francisco,CA,94122,0101000020E610000064D23A05549D5EC0B96C74CE4FE24240,ChIJMQznWQCHhYARYJ1o3D-rn04,
Callie's Hot Little Biscuit,King Street,476 1/2 King St,Charleston,SC,29403,0101000020E61000005BD3BCE314FC53C001A5A14621654040,ChIJzwStSmp6_ogRoa1vyarpiqI,
Callie's Hot Little Biscuit,Meeting Street,188 Meeting St,Charleston,SC,29401,0101000020E61000006B60AB048BFB53C0C61858C7F1634040,ChIJdz9mtA16_ogRnHxmONzNzn4,
Call Me Pearl,LoDo,1600 20th St,Denver,CO,80202,0101000020E61000001F1B37EBC23F5AC030B95164ADE04340,ChIJnRgAtIF5bIcRGydGN3SuxAs,
Cane Pazzo,Hanahan,1276 Yeamans Hall Rd,Hanahan,SC,29410,0101000020E61000002484A2D4B90054C06975CD3F55734040,ChIJq3O-uX9j_ogR-6_C55gFKmo,
Cappone's,West Village,11 Abingdon Square,New York,NY,10014,0101000020E6100000334C6E3A548052C08CFE0BDF575E4440,ChIJm2WVXL9ZwokRNwGDFzSKuH8,
Carissa's Bakery,Amagansett,221 Pantigo Rd,East Hampton,NY,11937,0101000020E6100000C679EEF3CE0A52C04B570B47EB7B4440,ChIJEdyFBDK76IkRbHAIKMcZYls,
Carissa's Bakery,East Hampton,68 Newtown Ln,East Hampton,NY,11937,0101000020E61000006A6803B0010C52C06E30D461857B4440,ChIJU7y0tKO66IkRgwM_iWVfvTA,
Carissa's Bakery,Sag Harbor,3 Bay St,Sag Harbor,NY,11963,0101000020E61000007F0AECD6D71252C0944A1D893C804440,ChIJMQ84NJ296IkRs9bjYEIYZK0,
Carlotto,Union Square,100 E 19th St,New York,NY,10003,0101000020E6100000E3DF675C387F52C050A6D1E4625E4440,ChIJJ8hFlKFZwokRFmzhJg7Qofo,
Carmine Street Beers,West Village,52 A Carmine St,New York,NY,10014,0101000020E6100000FB90A6223B8052C04753E63D715D4440,ChIJ5fF_9ZJZwokRvdVUZVpa2_I,
Carne,RiNo,2601 Larimer St,Denver,CO,80205,0101000020E610000075B7A1180F3F5AC072FE261422E14340,ChIJ8Vb5wQp5bIcRRcMRMAEzqbI,
Carriage House,West Village,142 W 10th St,New York,NY,10014,0101000020E6100000AD3E32A60C8052C043F1743C055E4440,ChIJlzm4NCRZwokRGSjvjX5yFvI,
Carta,West Village,35 Bedford St,New York,NY,10014,0101000020E61000006DEF6481408052C03F3646B8635D4440,ChIJKzDkIQBZwokR1_OvS4ohkRg,
Cart Driver,LoHi,2239 W 30th Ave,Denver,CO,80211,0101000020E6100000534B299EE9405AC05CDDFB6541E14340,ChIJNbOe0ll5bIcRy71yQ4mqEvQ,
Castro Indian Restaurant & Bar,The Castro,468 Castro St,San Francisco,CA,94114,0101000020E61000004D124BCADD9B5EC0B29E5A7D75E14240,ChIJETxWCZN_j4ARf1B301i5-ys,
Catbird Kitchen,3770 Walnut St,3770 Walnut St,Denver,CO,80205,0101000020E610000095DD27A23A3E5AC0AD8E77A27FE24340,ChIJb5O0PRB5bIcRfoGf0CQ7tTw,
Cecilia,East Village,97 St Marks Pl,New York,NY,10009,0101000020E61000007BE4C578037F52C00127DBC01D5D4440,ChIJOxW7qFFZwokR-KdRrjd3o9w,
Cha Cha Tang,West Village,257 6th Ave,New York,NY,10014,0101000020E61000003B8C497F2F8052C052D7DAFB545D4440,ChIJteQQa4RZwokRxrQRw-hpCqI,
Chambers,Tribeca,94 Chambers St #1,New York,NY,10007,0101000020E610000020CC92A57B8052C0F844E8B1775B4440,ChIJjZgvTx9awokRrET0kpr3d4k,
Champagne Tiger,East Colfax,601 E Colfax Ave,Denver,CO,80203,0101000020E6100000D4E87A47B23E5AC0BC08AE4DBEDE4340,ChIJtTnJEwB5bIcR8L30_aQs7fk,
Charles Pan-Fried Chicken,Harlem,340 W 145th St,New York,NY,10039,0101000020E6100000BC0CB55C6C7C52C0A67796C569694440,ChIJJ4MKaqP3wokRO-Z7EJaXyOk,
Charles Pan-Fried Chicken,Harlem,439 W 125th St,New York,NY,10027,0101000020E6100000DD274701227D52C0BD4CB96702684440,ChIJgZ9BHmX3wokRbTO_1t6253k,
Charles Pan-Fried Chicken,Upper West Side,146 W 72nd St,New York,NY,10023,0101000020E61000000E85CFD6C17E52C0501A6A1492634440,ChIJ7_ptNH72wokRWJ29NvzJSd0,
Chef's Lounge Founders,LoDo,1400 Curtis Street,Denver,CO,80204,,ChIJS_vG1dF4bIcRHT1-cH_igaM,
Chelsea Living Room,Chelsea,243 W 14th St,New York,NY,10011,0101000020E610000078B81D1A168052C01B47ACC5A75E4440,ChIJD0k97wBZwokRQIQ9ioXsZD8,
Chinta Thai,Greenpoint,157 Franklin St,Brooklyn,NY,11222,0101000020E610000051AB13FE4F7D52C04D1F532CAF5D4440,ChIJizcRni5ZwokRq-qMYfpKxB4,
Chouquet's,Chouquet's,2500 Washington,San Francisco,CA,94115,0101000020E61000000C7F3CAAD09B5EC0808351A456E54240,ChIJOyho5cWAhYARuJobf2VcbM0,
Clam Bar,Amagansett,2025 Montauk Hwy,Amagansett,NY,11930,0101000020E6100000630B410ECA0252C0AEDBFBAFCE7F4440,ChIJa9Ma4Nit6IkRZL9USMZ5EU0,
Claro,Gowanus,284 3rd Avenue,Brooklyn,NY,11215,0101000020E6100000A9DBD9571E7F52C0C1E44691B5564440,ChIJGVQqnFVawokRltzLtx5fMhM,
Clerks,Downtown,181 Church St,Charleston,SC,29401,0101000020E61000006AC18BBE82FB53C0F451465C00644040,ChIJwQPCRS17_ogRXFQ2EbBGdz4,
Coche Comedor,Amagansett,74A Montauk Hwy,Amagansett,NY,11930,0101000020E61000009C445DD56B0952C055476124857C4440,ChIJe_iMsOm76IkREotBMvZu2A4,
Coffee Bar by The Refuge,Isle of Palms,1517 Palm Blvd suite a,Isle of Palms,SC,29451,0101000020E61000003AAFB14B54F253C0C3B986191A654040,ChIJ7TpSoTJz_ogRYDJ42AYrARo,
Coleman Public House,Mt. Pleasant,427 W Coleman Blvd,Mt Pleasant,SC,29464,0101000020E6100000713AC95697F853C0F7ADD689CB654040,ChIJ__n0Xvpw_ogRCHZKuExfVMk,
Collina,Russian Hill,1550 Hyde St,San Francisco,CA,94109,0101000020E6100000DE0033DFC19A5EC08BC3995FCDE54240,ChIJVVWZC-yAhYARTO9lj9HYPlQ,
Colonia Verde,Fort Greene,219 Dekalb Ave,Brooklyn,NY,11205,0101000020E6100000CEBF435F217E52C024C3639A48584440,ChIJrXze-rlbwokRl3G4x1txJgk,
Commodore II,LES,14 Loisaida Ave,New York,NY,10009,0101000020E6100000E04CFA1EC77E52C0EF750AC4505C4440,ChIJfZlRiPZZwokRNti0HrCP_pw,
Crave Fishbar,Midtown,945 2nd Ave,New York,NY,10022,0101000020E610000014CE6E2D937E52C06902452C62644440,ChIJBUB1-eJYwokRwqGsIIvAPls,
Crave Fishbar,Upper West Side,428 Amsterdam Ave,New York,NY,10024,0101000020E6100000F566D47C957E52C0AF7AC03C64644440,ChIJqztVA4ZYwokRiLK8Lzh7_sk,
Crave Sushi Bar,Midtown East,947 2nd Ave,New York,NY,10022,0101000020E6100000F59F353FFE7D52C062BF27D6A9604440,ChIJkdJZKBRZwokRwhNrDEm_t8c,
Crif Dogs,East Village,113 St Marks Pl,New York,NY,10009,0101000020E6100000081296C1F57E52C02AA918B3125D4440,ChIJd4cu_9RZwokROtuVsYCgPAE,
Criollas Hell's Kitchen,Hell's Kitchen,888 8th Ave,New York,NY,10019,0101000020E61000002E02637D037F52C0B85A272EC7614440,ChIJjUWl9U9ZwokRqu0xrtIv_4M,
Criollas West Village,West Village,333 6th Ave,New York,NY,10014,0101000020E610000048348122168052C023BA675DA35D4440,ChIJZ-5Z2OtZwokR5QGPIp0IJVE,
Crown Shy,Financial District,70 Pine Street,New York,NY,10005,0101000020E6100000DC68006F818052C043AD69DE715A4440,ChIJ__9LNBZawokREnkOiVx7ydc,
Cruise Room,LoDo,1600 17th St CO,Denver,CO,80202,0101000020E6100000A6F33C13F53F5AC057A53EDA49E04340,ChIJ6QdWCZh5bIcRzjkjBPT0rEI,
Cubby's,Hells Kitchen,630 10th Ave,New York,NY,10036,0101000020E6100000F7393E5A9C7F52C0D8101C9771614440,ChIJrX0iSu5ZwokRYg6me9J5obs,
Dacha,Polk Gulch,1085 Sutter St,San Francisco,CA,94109,0101000020E6100000A1212DDFC49A5EC04B6DF310D7E44240,ChIJwzLVbKSBhYAROU9e3ep4_BU,
Dalida,Mission,101 Montgomery St,San Francisco,CA,94129,,ChIJ-0oK-amHhYARzNhyX0KQcEg,
Dalila's,Cannonborough Elliotborough,441 Meeting St Suite F,Charleston,SC,29403,0101000020E6100000035E66D828FC53C050340F6091654040,ChIJNXJ234B7_ogRva6P1mgPOw0,
Dashi,Park Circle,1262 Remount Rd,North Charleston,SC,29406,0101000020E61000001E8997A773FF53C0D99596917A734040,ChIJLQTTP69l_ogRPQLNc7SiSas,
Davey's Ice Cream,East Village,309 9th Street,New York,NY,10003,0101000020E610000054889688247F52C0EA518432555D4440,ChIJBxhQcdtZwokRZZDSUen2K1w,
Davey's Ice Cream,Greenpoint,74 Meserole Ave,Brooklyn,NY,11222,0101000020E6100000A9AEE701117D52C0B95C29B3FE5C4440,ChIJn4uvV0FZwokRXcHdLy6Og_M,
Davey's Ice Cream,Moynihan Train Hall,421 8th Ave,New York,NY,10001,0101000020E6100000DA823017BC7F52C0A3F6B1CF39604440,ChIJxwZzzNdZwokRMyNu9LzW1wM,
Dear Strangers,West Village,147 W 4th St,New York,NY,10012,0101000020E610000003ED0E29068052C017D86322A55D4440,ChIJY9Lf7W9ZwokR9G-2TSrck04,
Debajo,NoMad,44 W 29th St,New York,NY,10001,0101000020E610000022FAB5F5537F52C009719B5F835F4440,ChIJoxar_y9ZwokRIM6a4HXsuo4,
Decades Pizza,Ridgewood,690 Woodward Ave,Queens,NY,11385,0101000020E61000001B7EB18FF87952C056F1E693395A4440,ChIJy-XYyNtfwokRnFoJaxU7k0A,
designers collab coffee.,Williamsburg,96 A N 5th St,Brooklyn,NY,11249,0101000020E6100000D8028C787C7D52C0969C6E34DB5B4440,ChIJ3y1LyTFZwokRMC-XUpi7Nxw,
Deux Luxe,SoHo,384 Broome St,New York,NY,10012,0101000020E610000035D82F33C77F52C0C95DDFE23C5C4440,ChIJHfEjK2NZwokRf4WuY_AYrdw,
Dhamaka,Lower East Side,119 Delancey St,New York,NY,10002,0101000020E61000002F713F3B3B7F52C009CC9E5FEF5B4440,ChIJJyPbJe1ZwokRu8dDEOqAYDc,
Diner,Williamsburg,85 Broadway,Brooklyn,NY,11249,0101000020E6100000EBE5779ACC7D52C0F9A3A833F75A4440,ChIJvzYmKtlbwokRHye6SmfknDM,
Dive Bar Pizza,Montauk,466 W Lake Dr,Montauk,NY,11954,0101000020E6100000B438E5481BFC51C09097A6156F894440,ChIJu0_07FZV74kRhDxteFg83aU,
Dive Bar Pizza - Slice Counter,Montauk,466 W Lake Dr,Montauk,NY,11954,0101000020E6100000E844E53B0AFC51C04E5DE1997C894440,ChIJu0_07FZV74kRhDxteFg83aU,
Diwali Indian Cuisine,Mission,1499 Valencia St,San Francisco,CA,94110,0101000020E6100000A9A67FA4E39A5EC0B1B7DE80E0DF4240,ChIJvfU3rUt_j4ARsfgMLoRcZ6s,
Doubles,Amagansett,12 Amagansett Square,Amagansett,NY,11930,0101000020E6100000D523D78A050952C0B6DEEEE3B27C4440,ChIJqzMtFVex6IkRInzRqRHL-Rc,
Doubles,Sag Harbor,51 Division St,Sag Harbor,NY,11963,0101000020E61000004C20DBE8D21252C0427A8A1C22804440,ChIJxU5E7NG96IkR9V2_Tz5I2Bc,
Dragon Horse,SOMA,917 Folsom St,San Francisco,CA,94107,0101000020E6100000FF092E56D4995EC03CAA5093CFE34240,ChIJc4jk1ZWBhYARkZIS5HmVER8,
Due West,West Village,189 W 10th St,New York,NY,10014,0101000020E610000012A2724E368052C0FE321D5E055E4440,ChIJEyUgYZRZwokRETFRosKubF8,
Dumpling Time,Design District,11 Division St,San Francisco,CA,94103,0101000020E6100000EB24B616C1995EC04042DEBC82E24240,ChIJ1anaJC1-j4ARf_9BjfDowt8,
Dumpling Time,Mission Bay,191 Warriors Way,San Francisco,CA,94158,0101000020E6100000F109C41FE0985EC0EAF41CDD49E24240,ChIJR2AhaXJ_j4ARScj6r58240E,
Echo Bravo,Bushwick,445 Troutman St,Brooklyn,NY,11237,0101000020E61000007220DA7DFD7A52C0B46C52769F5A4440,ChIJMS1iB4lfwokR-nGBu-VwMZ0,
Edmund's Oast Brewing Co.,Wagener Terrace,1505 King St #115,Charleston,SC,29405,0101000020E61000007B6B60AB04FD53C0F279C5538F684040,ChIJGU5FivB6_ogRzmmp7eKqMtQ,
EJ's Luncheonette,Upper East Side,1271 3rd Ave,New York,NY,10021,0101000020E6100000935FF5366C7D52C020B3B3E89D624440,ChIJm8GloepYwokRKQQXHlt9X9w,
Elephant District,Dumbo,9 Old Fulton St,Brooklyn,NY,11201,0101000020E6100000994C46CE997F52C08A0A70CFF9594440,ChIJIQFtrv1bwokRkEaNwb8ltZQ,
Elephant Sushi,Fillmore,400 Grove St,San Francisco,CA,94102,0101000020E61000009BA26C431C9B5EC02110F2E2A2E34240,ChIJcVyMiSmBhYARK9hpjwu_JcQ,
Elephant Sushi,Russian Hill,1916 Hyde St,San Francisco,CA,94109,0101000020E61000009C68260DCD9A5EC00E01263545E64240,ChIJIXme1uiAhYARonEfUDgz0A4,
Elixir,Mission,3200 16th St,San Francisco,CA,94103,0101000020E61000009E6D7F78279B5EC042E3D3ADE8E14240,ChIJvwAwoRh-j4AR1BKWDkmJ3-E,
Ella Funt,East Village,78-80 E 4th St,New York,NY,10003,0101000020E6100000EEF8403C5C7F52C0E00D2C7AFC5C4440,ChIJoVcSWWFZwokRjbNOZGOxroo,
El Mansour,Outer Richmond,3119 Clement St,San Francisco,CA,94121,0101000020E6100000F549EEB0899F5EC01F9E25C808E44240,ChIJQ-y9wqmHhYARgqK_7YRKZ3I,
El Porteno,SOMA,700 2nd St,San Francisco,CA,94107,0101000020E61000001A946268FE985EC05CBD9C66EBE34240,ChIJuQFUy02Aj4ARoaOaNCQq7Oc,
Emblem,Williamsburg,187 Graham Ave,Brooklyn,NY,11206,0101000020E610000091C186E3637C52C09F38810AB15A4440,ChIJ__-zvv1bwokRq7XrbriPQZQ,
Emily Brooklyn,Clinton Hill,919 Fulton St,Brooklyn,NY,11238,0101000020E610000090831266DA7D52C0736891ED7C574440,ChIJYeJEs6RbwokRI9OjBP6hYG8,
Emmett's,SoHo,50 MacDougal St,New York,NY,10012,0101000020E610000027DBC01D288052C0F329B638195D4440,ChIJqxBUkY1ZwokRM-YtSwwhy1E,
Emmett's,West Village,39 Grove St,New York,NY,10014,0101000020E61000008857EDF5498052C09BC6F65AD05D4440,ChIJIUmWODtZwokRc33t3aurFco,
Empellón Taqueria & Bar,Greenwich Village,230 West 4th Street,New York,NY,10014,0101000020E6100000058A5ACC328052C0DFD2B5C1FE5D4440,ChIJS3YtZJRZwokR15ezAH-2Sec,
Ensenada,Williamsburg,168 Borinquen Place,Brooklyn,NY,11211,0101000020E61000005C55F65D117D52C07E52EDD3F15A4440,ChIJVQhDBhxbwokRLwobz9lb_qk,
E&O Kitchen and Bar,Union Square,314 Sutter St,San Francisco,CA,94108,0101000020E610000039454772F9995EC019E42EC214E54240,ChIJGXWXQYmAhYAR-Nr_OyKvI2o,
Essential by Christophe,Upper West Side,103 W 77th St,New York,NY,10024,0101000020E6100000F4AD6AA4807E52C003C82B6BF6634440,ChIJw6JyhoxZwokR3mKl4FLg5rM,
Estadio,Cannonborough,122 Spring St,Charleston,SC,29403,0101000020E6100000C093162EABFC53C0BF81C98D22654040,ChIJHRCMPIt7_ogRK9T7mG56Vs4,
Estancia Piola,Gowanus,288 3rd Ave,Brooklyn,NY,11215,0101000020E61000007D707BBF207F52C01B375392B5564440,ChIJ-cemB1xbwokRUuBRPBg0opo,
Evil Twin Brewing,Dumbo,43 Main St,Brooklyn,NY,11201,0101000020E6100000509EA5A2657F52C0EA3DDCB9F9594440,ChIJ-04l4vBbwokRHxrsv5Pf9kQ,
Evil Twin Brewing,Ridgewood,616 George St,Ridgewood,NY,11385,0101000020E61000004F901FA4DC7952C08DE62CA31F594440,ChIJv4wxbJ5dwokR_StiDfSvWQc,
EVO Craft Bakery,Park Circle,1075 E Montague Ave,North Charleston,SC,29405,0101000020E61000007A37161486FE53C026B6717ACD704040,ChIJs2HQ9ehk_ogR8j4Fa-8ARFA,
EVO Pizzeria,Park Circle,1075 E Montague Ave,North Charleston,SC,29405,0101000020E6100000028E4EA786FE53C06AE0FDA7D1704040,ChIJS79_9uhk_ogRXzmiDtLKcjo,
Falansai,Bushwick,112 Harrison Pl,Brooklyn,NY,11237,0101000020E61000004F75C8CD707B52C0FEEDB25F775A4440,ChIJc11gFQJcwokRcOejfRbBPpo,
Falu House,Greenpoint,34 Norman Ave,Brooklyn,NY,11222,0101000020E61000009141116B157D52C06E4EC69ABA5C4440,ChIJbwTrdABZwokRJBMnW6dXFoM,
Fan Fan Doughnuts,Clinton Hill,448 Lafayette Ave,Brooklyn,NY,11205,0101000020E61000005DB385B93E7D52C0F07B6DD93B584440,ChIJ-eBifR5bwokRgXeVyNhDBFg,
Farm to People Kitchen & Bar,Bushwick,1100 Flushing Ave,Brooklyn,NY,11237,0101000020E61000003C31EBC5507B52C00AF4893C495A4440,ChIJuUtZ-hdZwokRQw4pPJqOQbQ,
Ferdi,West Village,15 7th Ave S,New York,NY,10014,0101000020E61000003C5943C64A8052C0B91441C1795D4440,ChIJoTTiRY1ZwokRn9SpxgNIx7M,
F&F Restaurant and Bar,Carroll Gardens,465 Court St,Brooklyn,NY,11231,0101000020E61000000978C9D2E47F52C00403545BB2564440,ChIJ0TIuR1xbwokRyxxUTQqXiPY,
F&F Slice,F&F Slice,459 Court St,Brooklyn,NY,11231,0101000020E6100000ECA17DACE07F52C0ABAEE87BB2564440,ChIJO32xszpbwokRVr_g36taCbI,
F&F x Blackbird Pizza Sessions,Carroll Gardens,465 Court St,Brooklyn,NY,11231,0101000020E6100000831E204E968052C04961832ADA564440,,
Filé Gumbo Bar,Tribeca,275 Church St,New York,NY,10013,0101000020E610000007AE974B4F8052C033BC5983F75B4440,ChIJTeT7fTxbwokRdPDRDrqWjyM,
Filthy Diamond,Bushwick,679 Knickerbocker Ave,Brooklyn,NY,11221,0101000020E6100000D67FE728517A52C0E82A82A4F4584440,ChIJKTN6eehdwokRSVpHDoKvw7k,
Final Final,Pacific Heights,2990 Baker St,San Francisco,CA,94123,0101000020E6100000545227A0899C5EC0431CEBE236E64240,ChIJTx2ix9SAhYARjNIgHLlm7rI,
Fish Cheeks,Noho,55 Bond St,New York,NY,10012,0101000020E6100000FC54151A887F52C0D9B45208E45C4440,ChIJgc7fPIVZwokRQMnqTxTf_Qk,
Fish Cheeks,Williamsburg,661 Driggs Ave,Brooklyn,NY,11211,0101000020E61000003BA4BD665E7D52C0EDF88AC9765B4440,ChIJz-1-n9lZwokROnxtPfYbkHk,
Fish N Beer,RiNo,3510 Larimer St,Denver,CO,80205,0101000020E61000002C3AA3F7573E5AC00CAC883F2FE24340,ChIJf4b8dxp5bIcRSiXR0HEQ7xU,
Five Loaves Cafe,Mt. Pleasant,1055 Johnnie Dodds Blvd #100,Mt Pleasant,SC,29464,0101000020E610000071CADC7C23F753C060E5D022DB674040,ChIJT0AAmVZw_ogR4jRTh9lQg7o,
FLYBAR (FSR),FLYBAR,324 Lafayette St,New York,NY,10012,,,
FLYBAR (QSR),FLYBAR,324 Lafayette St Floor 6,New York,NY,10012,,,
FLYBAR (Square),FLYBAR,324 Lafayette St Floor 6,New York,NY,10012,,,
Formosa,Bushwick,144 Evergreen Ave,Brooklyn,NY,11206,0101000020E6100000CCDFCECF9E7B52C0231BFE8980594440,ChIJ7etbil9dwokRYKe_oQSHsdY,
Fornino,Greenpoint,849 Manhattan Ave,Brooklyn,NY,11222,0101000020E6100000CA6305EC0D7D52C07A58124E4F5D4440,ChIJx1Bo1EBZwokRUZ_xdNzvcLY,
Fossetta,Lower East Side,198 Allen St,New York,NY,10002,0101000020E6100000D74E9484447F52C028B517D1765C4440,ChIJ9RRDNShZwokRkVa5XZq-rxw,
Foul Witch,Alphabet City,15 Avenue A,New York,NY,10009,0101000020E6100000D9C9C5DC1D7F52C007EBAC7A8A5C4440,ChIJq6oPsoNZwokR1hGiiD3wy8g,
Fox And The Hen,Fox And The Hen,2257 W 32nd Ave,Denver,CO,80211,0101000020E6100000CA6ABA9EE8405AC006BDDCCC8DE14340,ChIJccWEGAZ5bIcRocT3qmn25y0,
Frances,The Castro,3870 17th St,San Francisco,CA,94114,0101000020E61000004A6A4906AA9B5EC03E328C37A4E14240,ChIJky2knBt-j4ARXAdR3-GAWM8,
Frankies 457 Spuntino,Carroll Gardens,457 Court St,Brooklyn,NY,11231,0101000020E61000002AA0094EE27F52C02425D7FCB4564440,ChIJm7uvMfZawokRNR0XRCotzWY,
Frannie & The Fox,Downtown,181 Church St,Charleston,SC,29401,0101000020E6100000F67D384888FB53C07A1D71C806644040,ChIJOetRgzp7_ogR_eJsx6ttGls,
Frasca,Pearl Street,1738 Pearl St,Boulder,CO,80302,0101000020E61000009D9FE23870515AC023B6604E75024440,ChIJ32ggfCnsa4cReukO2DP2hXY,
Fred's Dog House,Williamsburg,354 Grand St,Brooklyn,NY,11211,0101000020E610000098F9ABA72E7D52C0B73D86DC2C5B4440,ChIJEcTXd2NZwokRgVij9B5UW0A,
Freemans,East Village,Freeman Alley,New York,NY,10002,0101000020E6100000DA8D3EE6837F52C0623A19C16B5C4440,ChIJRcCC14VZwokRvJiDo29-IGM,
Fresno,East Hampton,11 Fresno Pl,East Hampton,NY,11937,0101000020E61000001E9ECA0E960C52C073CF5F8D587B4440,ChIJjXa_IwS76IkRNMrrKkALxJY,
Friedman's Chelsea Market,Friedmans Chelsea Market,75 9th Ave,New York,NY,10011,0101000020E6100000D233620B668052C0ECFB7090105F4440,ChIJw2lMFL9ZwokRyO_5o2VT8os,
Friend of a Farmer,Gramercy,77 Irving Pl Ground Floor,New York,NY,10003,0101000020E6100000F2097EC0287F52C0D5935401525E4440,ChIJb85ryKFZwokRaCJqC07E0G0,
Friend of a Farmer,Upper West Side,68 W 71st St,New York,NY,10023,0101000020E610000020A523CAA87E52C0402773E261634440,ChIJeQcpsdFZwokRLvcPlPKdYuc,
Fulgurances,Greenpoint,132 Franklin St,Brooklyn,NY,11222,0101000020E61000004B18F170467D52C098785E35625D4440,ChIJcelSUXlZwokRkD8zyKGV6k4,
Gair,Dumbo,41 Washington St,Brooklyn,NY,11201,0101000020E61000008DD1D884527F52C03B5EFC34FF594440,ChIJTZIC-AdbwokRPwk_gzcoNNs,
Gelso & Grand,Gelso & Grand,186 Grand St,New York,NY,10013,0101000020E610000087BF266BD47F52C0C85C19541B5C4440,ChIJS3EpUohZwokReLFKxxE_zKE,
gertrude's,Prospect Heights,605 Carlton Ave,Brooklyn,NY,11238,0101000020E610000060B01BB62D7E52C0234E27D9EA564440,ChIJnRyRtUBbwokR4veV9Er_PAU,
Gjelina NY,NoHo,45 Bond St,New York,NY,10012,0101000020E610000079D5EB558F7F52C066DBC9CEEB5C4440,ChIJv9s0scFZwokRYuWpWB7CLbw,
Golden Hof - Korean Bar & Grill,Midtown East,16 W 48th St,New York,NY,10036,0101000020E6100000498E2A79AB7E52C05C1B2AC6F9604440,ChIJc6vecABZwokRBHqMFj4UsbY,
Goldie's Tavern,Chelsea,135 W 30th St,New York,NY,10001,0101000020E6100000AFB14B546F7F52C0BAF605F4C25F4440,ChIJ72J3O2ZfwokRKcyw_siw980,
Good Bar,Greenpoint,1 Bedford Ave,Brooklyn,NY,11222,0101000020E6100000BEA9B6F5E07C52C04DFBFA38A55C4440,ChIJYaebsEZZwokRdaBnC6WMr5A,
Good Guys,Lower East Side,134 Eldridge St,New York,NY,10002,0101000020E6100000CC7C073F717F52C0226E4E25035C4440,ChIJqcXTb0NZwokRPbW9xBZwUEs,
Good Thanks,Williamsburg,374 Graham Ave,Brooklyn,NY,11211,0101000020E61000004FCAA495707C52C00076D27C9D5B4440,ChIJYzGsnstZwokRkcK34hMLbV0,
Gotham Burger Social Club,Greenpoint,113 Franklin St,Brooklyn,NY,11222,0101000020E6100000677A89B14C7D52C03293A8177C5D4440,ChIJXZ6WJABZwokRDi2X0_3I1Mo,
Gotham Burger Social Club,Lower East Side,131 Essex St,New York,NY,10002,0101000020E61000002DBCC39A317F52C0CBA1672B3E5C4440,ChIJa9mUEgFZwokRp_ITmhqS8f4,
Graft Wine Bar,Uptown Charleston,700b King St,Charleston,SC,29403,0101000020E61000000667F0F78BFC53C018213CDA38664040,ChIJz2rDuFx6_ogRk5EZR618YmI,
Greenpoint Fish & Lobster,Greenpoint,114 Nassau Avenue,Brooklyn,NY,11222,0101000020E6100000C8409E5DBE7C52C0FFB27BF2B05C4440,ChIJYVSQlUVZwokR3YMbMiZwhzE,
Greenwood Park,Park Slope,555 7th Ave,Brooklyn,NY,11215,0101000020E61000008F0711AA397F52C033554EE866544440,ChIJNTec2OBawokRUv0YTg7oX-E,
Greywind,Hudson Yards,451 10th Ave,New York,NY,10018,0101000020E61000003FE5982CEE7F52C0E90FCD3CB9604440,ChIJRyAmqgpZwokRHjS6xvDPVfI,
Grimm Artisanal Ales,Williamsburg,990 Metropolitan Ave,Brooklyn,NY,11211,0101000020E6100000BDF32205EF7B52C07B0CE667735B4440,ChIJO0onUVNZwokRAuTHAAO2OA0,
GupShup,Gramercy,115 E 18th St,New York,NY,10003,0101000020E61000002C0E677E357F52C02992AF04525E4440,ChIJvYavzZ5ZwokRBQj3hhDtpfk,
Gus's,Cobble Hill,215 Union St,Brooklyn,NY,11231,0101000020E61000002F4D11E0F47F52C06DAB59677C574440,ChIJTb3cUH1bwokRqVj5vctMMXs,
Hags,East Village,163 1st Ave.,New York,NY,10003,0101000020E61000002254A9D9037F52C0DD425722505D4440,ChIJp0ha1dFZwokRK9WxgN9HVuY,
Hank's Seafood Restaurant,Radcliffborough,10 Hayne St,Charleston,SC,29401,0101000020E61000005E13D21A83FB53C0A3CD716E13644040,ChIJt5BmhQ16_ogRbwSj1J64dmA,
Hanoi House,East Village,119 St Marks Pl,New York,NY,10009,0101000020E610000066DF707AF27E52C0FEB4519D0E5D4440,ChIJBWyKZp1ZwokRHhnug4zTch4,
Harborview Restaurant & Bar,Embarcadero,4 Embarcadero Center,Four Embarcadero Center,CA,94111,0101000020E6100000A84F17CE5A995EC06C92C437B9E54240,ChIJZ1SMEQeBhYAR8Y0suKMr48o,
Hart Bar,Bushwick,538 Hart St #1,Brooklyn,NY,11221,0101000020E6100000D457A192847B52C04779419F23594440,ChIJl66pMw9cwokRVevR2MmIqBg,
HaSalon,Hell's Kitchen,735 10th Ave,New York,NY,10019,0101000020E6100000AD18AE0E807F52C045B9347EE1614440,ChIJ-YpwVCJZwokR79IyrPpwSVA,
Hazie's,Hayes Valley,501 Hayes St,San Francisco,CA,94102,0101000020E6100000E8A4F78D2F9B5EC020C0D83164E34240,ChIJn-6m802BhYARruM4u0h9-Bc,
Hearty & Healthy,Lower East Side,103 1st Ave,New York,NY,10003,0101000020E61000001344DD07207F52C04AB3791C065D4440,ChIJZZe0gltZwokRcGgGUjceM_4,
Heavy Woods,Bushwick,50 Wyckoff Ave,Brooklyn,NY,11237,0101000020E61000001F9BE447FC7A52C042EE224C515A4440,ChIJpwu_dB1cwokRB_7Vq9WZDh0,
HED 11,Japantown,1800 Sutter St,San Francisco,CA,94115,0101000020E6100000CBC7A4758A9B5EC0D2D96E27B6E44240,ChIJ8wbZfQCBhYARbBBXJyQXBZA,
Heirloom Cafe,Mission,2500 Folsom St,San Francisco,CA,94110,0101000020E6100000780E65A88A9A5EC0A1A3552DE9E04240,ChIJ3XEasjl-j4ARWcW8iwtlkhw,
Hellbender,Ridgewood,68-22 Forest Ave,Queens,NY,11385,0101000020E610000041E555ABAF7952C04F4AA489FE594440,ChIJG4RMPa1dwokRBET-URZXZJU,
Henry & The Lions,Chelsea,405 W 23rd St,New York,NY,10011,0101000020E6100000E2067C7E188052C0EE5BAD13975F4440,ChIJFwCwrbpZwokRaS7l5yPwQyM,
Herd Provisions,East Central,106 Grove Street,Charleston,SC,29403,0101000020E6100000E0675C3810FD53C06AC020E9D3664040,ChIJ93o7oNB7_ogRKt36Os-r-C8,
Hoexters,Hoexter's,174 E 82nd St,New York,NY,10028,0101000020E61000009C645012377D52C02939CC3C5E634440,ChIJJWByn_BZwokR9IC-3PtPPuk,
Holy City Brewing,Park Circle - Charleston,1021 Aragon Ave,Charleston,SC,29405,0101000020E6100000C667B27F9EFE53C0158DB5BFB36F4040,ChIJXZV_WlF7_ogRy1myXw3d-ME,
Hortus,NoMad,271 5th Ave,New York,NY,10016,0101000020E61000009CDF30D1207F52C09B594B01695F4440,ChIJyX-WBOZZwokRROjVTDdgeZE,
Hortus,NoMad,271 5th Ave,New York,NY,10016,,ChIJyX-WBOZZwokRROjVTDdgeZE,
Hoseki,Midtown,611 5th Avenue,New York,NY,10022,0101000020E610000009371955867E52C090F7AA9509614440,ChIJKfbxu2RZwokRZhsCZq_HYTg,
Hudson Club,Midtown,136 W 55th St,New York,NY,10019,0101000020E610000093C83EC8B27E52C01E37FC6EBA614440,ChIJZ49dwcNZwokRtUHt_n4BYME,
Hungry Llama,West Village,679 Washington St,New York,NY,10014,0101000020E61000003DE87EF3878052C0B4379D09F25D4440,ChIJFXK3-LdZwokR41IAIP81AvM,
Huriyali,Downtown,401 Huger St,Charleston,SC,29403,0101000020E610000050E27327D8FC53C07B1684F23E664040,ChIJjczF2lp6_ogRBub6Bfc8OkU,
Huriyali,Riverland,2016 Wappoo Dr,Charleston,SC,29412,0101000020E610000048F949B54FFF53C0236937FA98614040,ChIJX3X_Fgx5_ogRclV0AGOOGtA,
Idaho,East Village,349 E 13th St,New York,NY,10003,0101000020E610000008878329EF7E52C0B0CCB62E905D4440,ChIJaeFdrtdZwokRMn3DrPKdAVc,
Iggy's Place,Richmond,3519 Balboa St,San Francisco,CA,94121,0101000020E6100000A51710B5C89F5EC00FB7F93548E34240,ChIJ62Ob5guHhYARfQu8fH-BugE,
Il Buco Alimentari & Vineria,NoHo,53 Great Jones St,New York,NY,10012,0101000020E61000005CAB3DEC857F52C09D46FF70FC5C4440,ChIJYUQdLoVZwokRBjKzg6PAaa8,
Il Corallo Trattoria,SoHo,176 Prince St,New York,NY,10012,0101000020E61000007FFD6BD41E8052C00DF32F93F25C4440,ChIJZ75-yI1ZwokR82kXXJvniwo,
ILIS,ILIS,150 Green St,Brooklyn,NY,11222,0101000020E6100000E017F263277D52C003C46EE9E25D4440,ChIJHZyajD1ZwokREWLihHYSryQ,
Inday All Day,Williamsburg,658 Driggs Ave,Brooklyn,NY,11211,0101000020E610000022E39831637D52C0B8879DD27A5B4440,ChIJ-xUElXtZwokRpv0Gz1fJiuc,
Indian Accent,Indian Accent,123 W 56th St,New York,NY,10019,0101000020E610000079B0C56E9F7E52C01D3D7E6FD3614440,ChIJ5zM53_lYwokREUcpQkveG1w,
Indigo,Marina,3321 Steiner St,San Francisco,CA,94123,0101000020E61000005B43A9BD089C5EC0EF1B5F7B66E64240,ChIJR3GOKeuBhYARZLjs9-fsh_Q,
Insa,Gowanus,328 Douglass St,Brooklyn,NY,11217,0101000020E610000099965CB7E17E52C0E0151F4211574440,ChIJo-EvNqtbwokRjZnXUY-cyCk,
IRIS,IRIS,1740 Broadway,New York,NY,10019,0101000020E6100000852348A5D87E52C0558847E2E5614440,ChIJMccf7SRZwokRyJJEQAXUhqM,
Iron Horse Cocktails,Iron Horse Cocktails,25 Maiden Ln,San Francisco,CA,94108,0101000020E61000005A0EF450DB995EC0782AE09EE7E44240,ChIJk-_jVoiAhYARUMRNR_Aq_wU,
Isabelle's Osteria,Gramercy,245 Park Ave S,New York,NY,10003,0101000020E61000003D450E11377F52C08D7A8846775E4440,ChIJV9twMKRZwokRkXW1n1miJeQ,
Isshiki,East Village,138 2nd Ave (inside Moko),New York,NY,10003,0101000020E61000001FDB32E02C7F52C011FFB0A5475D4440,ChIJsVe2QABZwokR4ewjadozGNE,
Itria,Mission,3266 24th St,San Francisco,CA,94110,0101000020E610000021044591BD9A5EC097D477F251E04240,ChIJg0a43A5_j4ARH8IaUaRVUCs,
Ivan Ramen,Lower East Side,25 Clinton St,New York,NY,10002,0101000020E6100000FF0D3565027F52C0EB1BF237475C4440,ChIJreEXi4FZwokR_ygs7wh2fTk,
Jacob's Pickles,Upper West Side,509 Amsterdam Ave,New York,NY,10024,0101000020E6100000A9392F046F7E52C05FBBB4E1B0644440,ChIJCehOSIRYwokRs4ijKsy1oiI,
Jaffa,Williamsburg,97 Wythe Ave,Brooklyn,NY,11249,0101000020E6100000BF4692205C7D52C0F0DE5163425C4440,ChIJlcUv3XVZwokRw8iLyOoROxI,
Jajaja Mexicana,LES,162 E Broadway,New York,NY,10002,0101000020E6100000AAD72D02637F52C022C154336B5B4440,ChIJp0gKoClawokR0txqrcaEkFc,
Jajaja Mexicana,West Village,63 Carmine St,New York,NY,10014,0101000020E6100000925B936E4B8052C0A56B26DF6C5D4440,ChIJh-s4YNNZwokRKuwXrP5FHqY,
Jajaja Mexicana,Williamsburg,119 Kent Ave,Brooklyn,NY,11249,0101000020E61000001D8F19A88C7D52C0DB696B44305C4440,ChIJgV3yD_lZwokRPTi6aPfX2yo,
Jane on Fillmore,Pacific Heights,2123 Fillmore St,San Francisco,CA,94115,0101000020E6100000F85A86EEC89B5EC0B49F7BC509E54240,ChIJ7ctrNsaAhYARdwAVqJAAjlQ,
Jane on Larkin,Nob Hill,925 Larkin St,San Francisco,CA,94115,0101000020E610000064462EEEF59A5EC0F4D9A61DA3E44240,ChIJPYugVJGAhYARLGnvHUwQkqs,
Jane the Bakery,Geary - Jane the Bakery,1881 Geary Blvd,San Francisco,CA,94115,0101000020E610000038691A14CD9B5EC0CD76853E58E44240,ChIJgdfmyLmAhYARS6fhSFcVbcY,
Jax Fish House & Oyster Bar,LoDo,1539 17th St,Denver,CO,80202,0101000020E610000001E0D8B3E73F5AC03C1405FA44E04340,ChIJbY9bXsN4bIcR6bvaxe_vkYY,
Joey Roses,LES,174 Rivington St,New York,NY,10002,0101000020E6100000C8CAD610027F52C0B3C42DED085C4440,ChIJyRRi4bpZwokR03CRX3x-RHc,
Judy Z’s Sports Tavern & Kitchen,West Village,1 7th Ave S,New York,NY,10014,0101000020E6100000788082E64E8052C019F730C5665D4440,ChIJqYfcXz5ZwokRBU0xHJdmJBk,
Jupiter,Rockefeller Center,"20 W 50th Street, Rink Level",New York,NY,10020,0101000020E61000004A32987BA47E52C08182E91E26614440,ChIJyflTcS1ZwokRBWTy8tCgaDM,
Kachina Cantina,LoDo,1890 Wazee St,Denver,CO,80202,0101000020E610000036F570B8C53F5AC0879D730179E04340,ChIJjxvS2tx4bIcRM0ybOLJpbKE,
Kaiyo,Soma,701 3rd St,San Francisco,CA,94107,0101000020E6100000044A54B91A995EC02347DF49B0E34240,ChIJAS1jCN5_j4AR_KeMCaeunWw,
KAIYŌ Rooftop,SOMA,701 3rd St 12th Floor,San Francisco,CA,94107,0101000020E6100000C976BE9F1A995EC02347DF49B0E34240,ChIJAS1jCN5_j4AR_KeMCaeunWw,
Kalye,Lower East Side,111 Rivington St,New York,NY,10002,0101000020E610000072528376397F52C08AFBA78A285C4440,ChIJj4yA4zJZwokRtQObXxWzxhc,
Kalye,Lower East Side,251 Broome St,New York,NY,10002,0101000020E610000089B94B395B7F52C0521E0C4BE95B4440,ChIJj4yA4zJZwokRtQObXxWzxhc,
Katsubō Chicken & Ramen,Park Circle - Charleston,4628 Spruill Ave Suite 101,North Charleston,SC,29405,0101000020E6100000FBC8AD49B7FE53C00B24287E8C704040,ChIJMTWHOFRl_ogRfc9Npjg4vOc,
Ketchy Shuby,Soho,406 Broome St,New York,NY,10013,0101000020E6100000296DB78ADB7F52C0550EC3984B5C4440,ChIJR4xJInZZwokRMp1wYc4fcag,
K'Far,Williamsburg,97 Wythe Ave,Brooklyn,NY,11249,0101000020E6100000A704C4245C7D52C0C05AB56B425C4440,ChIJ6TIr1bdZwokRwODfMs7T90g,
Kid,Chelsea,157 W 18th St Kid,New York,NY,10011,0101000020E6100000C6C1A563CE7F52C015FE0C6FD65E4440,ChIJAWxgTOdZwokRg1sX2Eif3e4,
Kilo Bravo,Williamsburg,180 N 10th St,Brooklyn,NY,11211,0101000020E61000009369D9FF257D52C0DFA06241065C4440,ChIJgUDVXlxZwokRebVE4AXTO9Q,
Kings County Brewers Collective,Bushwick,381 Troutman St,Brooklyn,NY,11237,0101000020E6100000AC25B6F91C7B52C0C0172BC45C5A4440,ChIJb6ZVSB1cwokRES6FZ2WAMAA,
Kings County Distillery,Vinegar Hill,299 Sands St,Brooklyn,NY,11205,0101000020E6100000483CC440BC7E52C0EAD1C5338E594440,ChIJbe26PclbwokRfrb6lAnTB30,
Kings of Kobe - Wagyu Kitchen & Bar,Hell's Kitchen,650 W 42nd St,New York,NY,10036,0101000020E610000094BDA6AD048052C0B58593E072614440,ChIJlaUCHbxZwokRUPWZkyNQyYg,
Kiwami,Brooklyn Heights,141 Bridge Park Dr,Brooklyn,NY,11201,0101000020E61000009BBB83BB0C8052C000C16B9FC5584440,ChIJeb_vSCRbwokRVIzbficpCeQ,
Koloman,Koloman,16 W 29th St,New York,NY,10001,,ChIJUUBMchNZwokRwDOHIFhOIHA,
Komaaj,Mission,10 29th St,San Francisco,CA,94110,0101000020E61000002535FE8EF29A5EC09799886D41DF4240,ChIJVVXlLPh2hYAR20ALCmb9rC8,
Konro,Konro,424 Park Pl #101,West Palm Beach,FL,33401,0101000020E610000032B08EE3870354C08E05854199B23A40,ChIJSXAL3qBbwokRpeJa_78hfAc,
Kothai Republic,Inner Sunset,1398 9th Ave,San Francisco,CA,94122,0101000020E61000000540CBA9D39D5EC0B4AB90F293E14240,ChIJBXYmaSKHhYAR2D4hlotI7TA,
K Pasa,Sag harbor,BOX 2426,Sag Harbor,NY,11963,0101000020E61000005323F433F51252C073DA53724E804440,ChIJoR5uY_y96IkRT0l4yM0uuaw,
Kraam,NoMad,254 5th Ave,New York,NY,10001,0101000020E6100000F260E696317F52C0EFE4D3635B5F4440,ChIJX6wpqwdZwokRa3aTRWulWkA,
Kru,Williamsburg,190 N 14th St,Brooklyn,NY,11249,0101000020E61000004F0647C92B7D52C06A27F4E4865C4440,ChIJz0Bt0ldZwokR698-eT0Dh88,
Krupa Grocery,South Slope,231 Prospect Park W,Brooklyn,NY,11215,0101000020E6100000DDDC0027C27E52C0BF6090BF79544440,ChIJDXCWZh5bwokROj_-7EfM3NI,
Kubeh,Greenwich Village,464 6th Ave,New York,NY,10011,0101000020E6100000FF40B96DDF7F52C0ACC8E880245E4440,ChIJ5fW8U5ZZwokRlk_uZ6uLlgg,
Kultura,Downtown,73 Spring St Unit A,Charleston,SC,29403,0101000020E6100000F629C76471FC53C073F4F8BD4D654040,ChIJN1Kj-z57_ogRCzFv0tY-VRM,
KUMISO,East Hampton,Alley next to Breezin-Up,East Hampton,NY,11937,0101000020E6100000EF9705C9F10B52C02E1EDE73607B4440,ChIJZTgx5tC76IkRbKqJVoURbJU,
Kwei Fei,Riverland Terrace,1977 Maybank Hwy,James Island,SC,29412,0101000020E6100000AE9B525E2BFF53C0D7169E978A614040,ChIJ2Y6RTt55_ogR01tw5zmzHJc,
KYU NYC,Noho,324 Lafayette St,New York,NY,10012,0101000020E6100000FE7E315BB27F52C004E44BA8E05C4440,ChIJRUXf9uBZwokR9WS3NBhSjYk,
L'abeille,Tribeca,412 Greenwich St,New York,NY,10013,0101000020E61000006ED51177A38052C0E433F3B3775C4440,ChIJq75Ur-tZwokRo7I_F_PhlcU,
L'abeille à côté,Tribeca,412 Greenwich St Unit A,New York,NY,10013,0101000020E61000004556BF3DA28052C0BD2F83B76A5C4440,ChIJkdKgqjBZwokRe0eoeX7X9Xg,
Lafayette Grand Café & Bakery,NoHo,380 Lafayette St,New York,NY,10003,0101000020E6100000B2DE03CF987F52C08AE4D0C7215D4440,ChIJBVtTt5pZwokR48CgdYqHma8,
La Fondita,Amagansett,74 Montauk Hwy,Amagansett,NY,11930,0101000020E61000009F9A81806B0952C0E6F6DC53837C4440,ChIJRem_lc-t6IkRFAsygSqVhu4,
Laissez Faire,Financial District,10 Theatre Alley,New York,NY,10038,0101000020E61000004E623156708052C0808F9BD50F5B4440,ChIJuQ9WfihbwokR3PTLA2-HvhE,
La Newyorkina,Meatpacking,The High Line,New York,NY,10014,0101000020E610000011AD7026818052C055D33FD2F15E4440,ChIJVRQIjcBZwokRnHusg-u4kso,
La Newyorkina,Red Hook,61 Commerce St,Brooklyn,NY,11231,0101000020E6100000D76CE5257F8052C07962314514574440,ChIJJ4dQEWBawokRKThH6VuPK8Q,
La Noxe,Chelsea,162 W 28th St at,New York,NY,10001,0101000020E6100000CE55F31C917F52C0BC07E8BE9C5F4440,ChIJpy4I5A1ZwokRkeVFxbwI2f8,
LaRina Pastificio e Vino,Fort Greene,387 Myrtle Ave,Brooklyn,NY,11205,0101000020E6100000BF8AA8A81B7E52C0700E9021BE584440,ChIJweAtELhbwokRO1AexCvuRo0,
Laser Wolf,Williamsburg,97 Wythe Ave,Brooklyn,NY,11249,0101000020E6100000BF4692205C7D52C02063EE5A425C4440,ChIJLyS5dYRZwokRlkA0g9eijjs,
La Tete D'Or,Flatiron,318 Park Ave S,New York,NY,10010,0101000020E6100000BA2C26361F7F52C0B9C5FCDCD05E4440,ChIJsTUVzgBZwokRkUIgGFl_RJc,
L'avion Café,Upper East Side,338 E 92nd St,New York,NY,10128,0101000020E6100000BDBA74DDA57C52C02B3AED84F2634440,ChIJU0Us8KdZwokR-MV727eIY9I,
Layla,Williamsburg,352 Bedford Ave,Brooklyn,NY,11249,0101000020E610000082B4D1459F7D52C091D337BB305B4440,ChIJ57ZDGMxbwokRVox0BjRGB_U,
Lazy Sundaes,DUMBO,170 Front St,Brooklyn,NY,11201,0101000020E610000071C79BFC167F52C0B03BDD79E2594440,ChIJkWdo8pxbwokRb0yfkKXQOrI,
Lazy Sundaes,Greenwich Village,11 Waverly Pl,New York,NY,10003,0101000020E6100000671426E79F7F52C0B613DB93765D4440,ChIJ7w2fUTdZwokR9-nAUi9iQVE,
Lazy Sundaes,Lower East Side,23 Clinton St,New York,NY,10002,0101000020E6100000F9F13C5D027F52C087CA75093D5C4440,ChIJva8gSeVZwokR3TrD7QRjZAE,
Le Farfalle,Harleston Village,15 Beaufain St,Charleston,SC,29401,0101000020E6100000191FC1E8CDFB53C041902859F3634040,ChIJC5AVwxN6_ogR9QnofBlebTg,
Left Hand Coffee,Montauk,83 S Elmwood Ave,Montauk,NY,11954,0101000020E61000001910108244FC51C070BAC0406B844440,ChIJ6d8h3ldT74kRh0pkXGEsqCQ,
Left Hand Coffee - Montauk Beach House,Montauk,55 S Elmwood Ave,Montauk,NY,11954,0101000020E610000049D74CBE59FC51C0C97E82305C844440,ChIJd_zAM1ZT74kRFQxh_BxPjgM,
Le Gratin,FiDI,5 Beekman St,New York,NY,10038,0101000020E6100000AE49B725728052C0CC5D4BC8075B4440,ChIJj4fN7HBbwokRCB5xca3KF1E,
Léon 1909,Shelter Island,29 W Neck Rd,Shelter Island Heights,NY,11965,0101000020E610000015658055BF1652C0FD4F59A890894440,ChIJsZ0F8SiZ6IkRvpR9ZU0YGe4,
Leon's,Union Square,817 Broadway,New York,NY,10003,0101000020E61000007DF390FC6E7F52C03C062FB6EF5D4440,ChIJPfXBCwBZwokRI2bnWBxCQCE,
Leon's Oyster Shop,Downtown Charleston,698 King St,Charleston,SC,29403,0101000020E610000074CBF61A8CFC53C015E9AAB435664040,ChIJ180tuFx6_ogRLrajxAiAgYQ,
Le Pavillon,Midtown,One Vanderbilt Ave,New York,NY,10017,0101000020E610000038F581E49D7E52C0745FCE6C57604440,ChIJjcAJd-tZwokRJ0GkkJ2Urp0,
Le Pistol Bar & Cafe,Prospect Heights,780 Washington Ave,Brooklyn,NY,11238,0101000020E6100000214C9BBBA77D52C09A643FE65E564440,ChIJFYeUIABbwokRRRiaj82mZAQ,
Le Rivage,Le Rivage,340 W 46th St,New York,NY,10036,0101000020E61000003AC95697537F52C09AEB34D252614440,ChIJP9968FNYwokRluXA9d7952g,
Le Rock,Rockefeller Center,45 Rockefeller Plaza,New York,NY,10111,0101000020E610000089739A6D967E52C09D2115E745614440,ChIJNbTIf5BZwokRjbkuTrLZVB4,
Levantine,East Williamsburg,361 Graham Ave,Brooklyn,NY,11211,0101000020E610000024D1AAB7757C52C01F882F61935B4440,ChIJvTv-1VBZwokRi3Wl2t2QvVY,
Lewis Barbecue,NoMo,464 N Nassau St,Charleston,SC,29403,0101000020E6100000E449D23593FC53C0C28A53AD85674040,ChIJkWzIVWtZwokRI4QPE8mVHvA,
Lewis Barbecue Bar,Lewis Barbecue Charleston,464 N Nassau St,Charleston,SC,29403,0101000020E6100000E9EC647094FC53C04BE4277A85674040,ChIJS1r2V196_ogRcfkNioUMYJo,
L'Express,Gramercy,249 Park Ave S,New York,NY,10003,0101000020E61000009D9B36E3347F52C0793F6EBF7C5E4440,ChIJb9HznqFZwokRHWxf3DbskaI,
Lighthouse,Williamsburg,145 Borinquen Pl,Brooklyn,NY,11211,0101000020E61000001288D7F50B7D52C03D80457EFD5A4440,ChIJmU4y-OFbwokRuuTUu-zsedc,
Lilia,Williamsburg,567 Union Ave,Brooklyn,NY,11211,0101000020E61000005F5E807DF47C52C0D9976C3CD85B4440,ChIJJXCD6ltZwokRJ_cwjKQH63c,
Lillian's Market & Cafe,Lillian’s Petite Market & Eatery,247 Congress St,Charleston,SC,29403,0101000020E61000003171506713FD53C03B5C61B0D1654040,ChIJAzlh7I17_ogRfARqVvn4emA,
Lillian's Restaurant,Hampton Park Terrace,247 Congress St,Charleston,SC,29403,0101000020E61000008B71FE2614FD53C07C45B75ED3654040,ChIJAzlh7I17_ogRfARqVvn4emA,
Lindens,SoHo,2 Renwick St,New York,NY,10013,0101000020E6100000AE8383BD898052C0D508FD4CBD5C4440,ChIJh-oPySxZwokRBTfrxwTdRo4,
Little Charli,Greenwich Village,271 Bleecker St,New York,NY,10014,0101000020E61000003E890BB4338052C07D845B85A45D4440,ChIJi9KyP7JZwokRODCiGhV2_KI,
Little Dipper,Chelsea,135 W 30th St,New York,NY,10001,0101000020E6100000EED0B018757F52C09BA9108FC45F4440,ChIJWXeePgBZwokRjyCUzI8-NjE,
Little Honey,South Slope,487 7th Ave,Brooklyn,NY,11215,0101000020E61000005AD3BCE3147F52C0ECF99AE5B2544440,ChIJWylCagBbwokRxneNVeB7mVY,
Little Jack's Tavern,Downtown Charleston,710 King St,Charleston,SC,29403,0101000020E61000004A060EEF97FC53C00599944254664040,ChIJo_sjo1x6_ogRtUDrUtTWli8,
Little Line Kitchen & Provisions,Cannonborough Elliotborough - Charleston,176 Line St,Charleston,SC,29403,0101000020E610000000304388D0FC53C0580229B16B654040,ChIJZ2iqqt17_ogRLP5T9taXWxU,
Little Maven,Flatiron,30 W 18th St,New York,NY,10011,0101000020E6100000B343FCC3967F52C02383DC45985E4440,ChIJW3LA-dxZwokR0WAavt1PXFE,
Little More,Little More,111 Reade St,New York,NY,10013,0101000020E61000007B04487E8E8052C0962BCDF79D5B4440,ChIJdca4ZQBbwokRaxJrJc_iboE,
Little Original Joe's,Marina,2301 Chestnut St,San Francisco,CA,94123,0101000020E61000006C47DCC53B9C5EC0370DAD5A6BE64240,ChIJo_MMIdSAhYARhV9nPwTrm84,
Little Palm,Downtown,237 Meeting St,Charleston,SC,29401,0101000020E6100000BC581822A7FB53C04CA94BC631644040,ChIJC4n-xyN7_ogRFpS2Bz2a7Wg,
Little Prince,South Village,199 Prince St,New York,NY,10012,0101000020E61000004D1E3AC42C8052C01AF44726105D4440,ChIJ5c-evI1ZwokRhHh6FjhuLH8,
Little Rascal,Greenpoint,130 Franklin St,Brooklyn,NY,11222,0101000020E61000008DFD7523467D52C019A941905A5D4440,ChIJ01RS_U1ZwokRYmG4U1zKxgs,
Little Rascal,Nolita,163 Elizabeth St,New York,NY,10012,0101000020E61000007B05A479AD7F52C0F64671274E5C4440,ChIJL8FQnohZwokRtuZZu_mQ_xI,
Live Sushi Bar,Potrero Hill,2001 17th St,San Francisco,CA,94103,0101000020E6100000AB09FE1DD7995EC00E969295E4E14240,ChIJtSa-BDN-j4ARVOuKy9mDdhw,
Llama Inn,Williamsburg,50 Withers St,Brooklyn,NY,11211,0101000020E6100000D0B648B5D57C52C0338B147DD35B4440,ChIJD6vUMlpZwokRSFeGSBW_gvU,
Llama San,Llama San,359 6th Ave,New York,NY,10014,0101000020E61000008647397E0D8052C0BB8DED57C95D4440,ChIJ8youq41ZwokRqnnXghN1DIs,
Lobby Bar,Lobby Bar,20 W 29th St,New York,NY,10001,,ChIJ9Xkow4NZwokRRdEq8ppSDI4,
Lobster Roll Restaurant,Amagansett,1980 Montauk Hwy,Amagansett,NY,11930,0101000020E61000006F33709B040352C037255987A37F4440,ChIJQUcL2Tau6IkR6i135p0tVNo,
Lobster Roll Restaurant,Southampton,32 Montauk Hwy,Southampton,NY,11968,0101000020E6100000A135F570B81752C03E7B890C06734440,ChIJLTP91qaT6IkRKNx65swc0ks,
Local 42,Hell's Kitchen,574 9th Ave,New York,NY,10036,0101000020E6100000FEF09FDF887F52C013DFABEF06614440,ChIJA__4pVVZwokRCrAjVlE9BPE,
Local Roots,Market57,25 11th Ave Kiosk #5,New York,NY,10011,0101000020E6100000C10C1206978052C0EC6B11E9225F4440,ChIJOVrVlpJZwokRyWwXfTLLV3M,
Lodi,Midtown,1 Rockefeller Plaza,New York,NY,10020,0101000020E6100000A3CC89E3A67E52C03FC5E99D0B614440,ChIJtY_Cr9VZwokR86t_xHCuZjc,
Loring Place,Greenwich Village,21 W 8th St,New York,NY,10011,0101000020E61000009D6516A1D87F52C059A31EA2D15D4440,ChIJ69NaKJdZwokR3CamunXyYig,
Lost Cat Bar & Bites,Lost Cat Bar & Bites,587 Post St,San Francisco,CA,94102,0101000020E610000011EBE813549A5EC09852F245D6E44240,ChIJZTcP2_uBhYARQZBWBWXHrkE,
Lost Isle,Johns Island,3338 Maybank Hwy,Johns Island,SC,29455,0101000020E610000058C85C19540454C021020EA14A5D4040,ChIJlb-kF-9__ogRcmNJB2ScqhI,
Lovely's Old Fashioned,Hell's Kitchen,642 9th Ave,New York,NY,10036,0101000020E610000081B1A5D76B7F52C05495259956614440,ChIJd4_SnFJZwokRBeuZ-YwGaUw,
Lowland,French Quarter,36 George St,Charleston,SC,29401,0101000020E6100000CF9F36AAD3FB53C0DAC69FA86C644040,ChIJTTcM5Zx7_ogRlEKsvPVFWHM,
Lowlife,Folly Beach,106 E Hudson Ave,Folly Beach,SC,29439,0101000020E610000052D158FB3BFC53C0232D95B723544040,ChIJEVkJrRrX_YgRJZhpb4ZGxKw,
Lucky Tiger,Financial District,66 Pearl St,New York,NY,10004,0101000020E6100000EDD45C6EB08052C0E8EE84A80C5A4440,ChIJL8gCanlbwokRuOv6QWomh8A,
Lula Mae,Fort Greene,472 Myrtle Ave,Brooklyn,NY,11205,0101000020E61000001A6D5512D97D52C03B3602F1BA584440,ChIJi9R8lVJbwokRtKjPyX4YvnU,
Lulla,Chelsea,113 W 24th St,New York,NY,10011,0101000020E6100000BEA085048C7F52C00ABDFE243E5F4440,ChIJvTLKIr9ZwokRIBsYYKUY2DU,
Lume,West Village,259 West 4th Street,New York,NY,10014,0101000020E610000030BA1C92338052C0C651F7D4235E4440,ChIJN-YZAHNZwokRfCSd6SaZWUc,
L&W Market,Bridgehampton,2493 Montauk Hwy,Bridgehampton,NY,11932,0101000020E6100000E4D220F94B1352C0A5FE2A8FF3774440,ChIJ1T3NBZ5ZwokRH2TC_i4RUrs,
Ma'am Saab,Downtown Charleston,251 Meeting St,Charleston,SC,29401,0101000020E6100000925D6919A9FB53C0965F066344644040,ChIJXRzKDxl7_ogR-ESom4Gc2xY,
Madame Vo,East Village,212 E 10th St,New York,NY,10003,0101000020E6100000CE1951DA1B7F52C03ED00A0C595D4440,ChIJqRaETJxZwokRik6wrAXTOd4,
Madeline's,Greenpoint,113 Franklin St FC,Brooklyn,NY,11222,0101000020E61000007B56054E4C7D52C029D5E7627B5D4440,ChIJzSqlSxpZwokRnXgKKOO_yWE,
Mah-Ze-Dahr,Battery Park City,225 Liberty St,New York,NY,10281,0101000020E610000082C476F7008152C00821205F425B4440,ChIJU7XySD9bwokRzxnhM1S8uWw,
Maison May Kitchen,Fort Greene,246 DeKalb Ave,Brooklyn,NY,11205,0101000020E6100000EF2DF6A8097E52C070BCF1A43B584440,ChIJcdSBy8RbwokRiyAEVBOzxnc,
Maison Pickle,Upper West Side,2315 Broadway,New York,NY,10024,0101000020E6100000A7DA5D56977E52C0C874E8F4BC644440,ChIJrapahYZYwokRdCivYmoCbJ8,
Maison Sun,Boerum Hill,200-3 Schermerhorn St,Brooklyn,NY,11201,0101000020E61000005667107A117F52C0B3356CA521584440,ChIJVdRVFvZbwokRvTMvHpvu0PE,
MáLà Project,Bryant Park,41 W 46th St,New York,NY,10036,0101000020E610000045CD89F2BF7E52C0A3826F95E9604440,ChIJuyQyqf9YwokRSlObfXst7sQ,
MáLà Project,East Village,122 1st Ave.,New York,NY,10009,0101000020E610000083AE71850F7F52C0D5BB500F175D4440,ChIJM2NCGJ1ZwokRA2nCkZcz08g,
MáLà Project,Greenpoint,603 Manhattan Ave,Brooklyn,NY,11222,0101000020E61000005A811DAAD77C52C0E1AF8A19985C4440,ChIJlc0Qm1xZwokRREsqzm8pGg0,
MáLà Project,Midtown East,245 E 53rd St,New York,NY,10022,0101000020E610000011A22299ED7D52C09D96656AEE604440,ChIJc4JAM8hZwokRMyWkNxrTDN8,
Malika Canteen,Mt. Pleasant,1333 Theater Dr,Mt Pleasant,SC,29464,0101000020E610000039622D3E05F553C02F3201BF466A4040,ChIJe_xDGdlz_ogROqKNs3SQCTA,
Malka - Dumbo,Dumbo,56 Adams St,Brooklyn,NY,11201,0101000020E61000003509DE90467F52C0E9BAF083F3594440,ChIJ2QOSPEZbwokR5dMpgfr3PKU,
Malka UWS,Upper West Side,161 W 72nd St,New York,NY,10023,0101000020E61000002579AEEFC37E52C0BC581822A7634440,ChIJCyq9Xr1ZwokRtYHX1gcbJF0,
Maloya,Bushwick,983 Flushing Ave,Brooklyn,NY,11206,0101000020E6100000E75F819EBC7B52C0DDE79DAFFE594440,ChIJma2fX15dwokR4N39k_xbPIY,
Maman,Battery Park,210 Murray St,New York,NY,10282,0101000020E6100000C80185EFEE8052C0692103838F5B4440,ChIJVxpH38xbwokRRcqSwuRVwW4,
Maman,Cobble Hill,154 Court St,Brooklyn,NY,11201,0101000020E61000002E3986578E7F52C0C054A05A2B584440,ChIJuedIXXtbwokROUHVzt-XCtM,
Maman,Upper East Side,1424 3rd Ave,New York,NY,10028,0101000020E61000001908A9A63A7D52C0E831844A45634440,ChIJAx5HgFlZwokRcWUfz5VxS0w,
Maman,Upper West Side,429 Amsterdam Ave,New York,NY,10024,0101000020E6100000C4DC39178C7E52C0A283E9B05F644440,ChIJL8_mB4lZwokR9RPJzSCMrmw,
Mano a Mano,Logan Square,2534 N Milwaukee Ave,Chicago,IL,60647,0101000020E610000051267F411CED55C0D79B621FAEF64440,ChIJ_TpJQMnND4gR7BzXJXstAG8,
Marie's,Bushwick,195 Wyckoff Ave,Brooklyn,NY,11237,0101000020E61000006545A5BBA67A52C0159BC1BCF1594440,ChIJf0_U-V1dwokRrdkZbn2BUew,
Marseille,Hell's Kitchen,630 9th Ave,New York,NY,10036,0101000020E6100000B9A981E6737F52C0C2DCEEE53E614440,ChIJDf7etFNYwokR_b7pJ_D2_dM,
Mattina,Mattina,2232 Bush St,San Francisco,CA,94115,0101000020E6100000D584A39AC89B5EC0CC1F7821C2E44240,ChIJYTzmaFiBhYARlEFG6VasHl4,
Maybank Public House,James Island,1970 Maybank Hwy,Charleston,SC,29412,0101000020E6100000F35A09DD25FF53C0533E0455A3614040,ChIJu1AjHF55_ogRJxqL6Y7C25M,
Meadowsweet,Williamsburg,149 Broadway,Brooklyn,NY,11211,0101000020E6100000C09E12ABA37D52C0321F6FC9EF5A4440,ChIJwXUoA99bwokRU2bF-gdB25I,
Mecha Noodle Bar,RiNo,2801 Walnut St,Denver,CO,80205,0101000020E61000003B40E6B9F43E5AC09F138C9477E14340,ChIJeb6mea15bIcRznDZJqRTKJM,
Meeting House,Amagansett,4 Amagansett Square,Amagansett,NY,11930,0101000020E610000043A8F7F9140952C06E8AC745B57C4440,ChIJrZkgVae66IkR2HGHO22tVys,
Melfi's,Downtown Charleston,721 King St,Charleston,SC,29403,0101000020E6100000DDF650DA94FC53C01B738D0E35664040,ChIJ1-7uvCx7_ogRk997qqBzibY,
Menya Kanemaru Golden Ramen,Mission,174 Valencia St,San Francisco,CA,94103,0101000020E610000070873C380E9B5EC08085DDC199E24240,ChIJ2QN9pF5_j4AR16NfhOetuHk,
Mercantile,LoDo,1701 Wynkoop St #155,Denver,CO,80202,0101000020E610000044A51133FB3F5AC015EE015F76E04340,ChIJJ3w-CsN4bIcRnjIYAv0i6MU,
Midnights,Williamsburg,149 N 6th St,Brooklyn,NY,11249,0101000020E6100000D8D1CDA4577D52C03AD6B835D65B4440,ChIJoerR5V1ZwokRu55P9DJaNEo,
Mijo,Chelsea,25 11th Ave Kiosk 12,New York,NY,10011,0101000020E61000006ADFF8F59B8052C04377725C2C5F4440,ChIJYz7xMA1ZwokRKF9e6rssLcA,
Mijo,Meatpacking,10th Avenue and,New York,NY,10011,0101000020E610000011AD7026818052C053D33FD2F15E4440,ChIJVRQIjcBZwokRnHusg-u4kso,
Mile End Deli,Boerum Hill,97 Hoyt St,Brooklyn,NY,11217,0101000020E61000005ACB310E2D7F52C05ABF3B05FF574440,ChIJLb9vlE1awokRL4Ume5zpejQ,
Milk & Hops,Chelsea,166 9th Ave,New York,NY,10011,0101000020E61000000492B06F278052C01EFE9AAC515F4440,ChIJN6avE7lZwokRZrgdqFX1f6Y,
Millers All Day,Downtown,120 King St,Charleston,SC,29401,0101000020E610000023BDA8DDAFFB53C082FDD7B969634040,ChIJp1j0TRB6_ogRLcupo0MkjJ0,
Millers All Day,James Island,1956 Maybank Hwy Unit A,Charleston,SC,29412,0101000020E610000078B81D1A16FF53C02BFC19DEAC614040,ChIJEWlFjFd5_ogREoukLXlaF2I,
Milos Meze,Marina,3348 Steiner St,San Francisco,CA,94123,0101000020E61000002E1C08C9029C5EC0D82AC1E270E64240,ChIJz5elL9eAhYARHEkGT1LSNkc,
Mino Brasserie,West Village,225 W 12th St,New York,NY,10011,0101000020E6100000E1B88C9B1A8052C0AF97A608705E4440,ChIJh0Elkf1ZwokRrFXIVkSPvKU,
Mishik,Hudson Square,259A Hudson St,New York,NY,10013,0101000020E61000002315C616828052C0EC4D0CC9C95C4440,ChIJSx4uSy5ZwokRwqbvtErf43M,
Misi,Misi,329 Kent Ave,Brooklyn,NY,11249,0101000020E61000009C06FB65E67D52C083F755B9505B4440,ChIJw7SsU_pZwokREyGSSulF53U,
Mister Oso,Boulder Area,1253 Pleasant St unit 101,Boulder,CO,80302,0101000020E610000014252191B6515AC0FA8557923C014440,ChIJb5FzHxHta4cReR_gXny0wDs,
Mister Oso,RiNo,3163 Larimer St,Denver,CO,80205,0101000020E61000003E8743809D3E5AC01F6393A1CFE14340,ChIJ_2q1cg55bIcRKhYP9PxOiV4,
Mitsuru,Greenwich Village,149 W 4th St,New York,NY,10012,0101000020E6100000E515E357078052C099261186A65D4440,ChIJ53izUQBZwokRJTNgBT_Et_o,
Mixteca,West Village,1 Cornelia St,New York,NY,10014,0101000020E610000018963FDF168052C04815C5ABAC5D4440,ChIJG4KjIzNZwokRoNPsES4eqaA,
Miznon,Chelsea,435 W 15th St,New York,NY,10011,0101000020E6100000EE9CC13A698052C00D2DFC2A0A5F4440,ChIJ8VQWXL9ZwokRvzf2OM4TNP4,
Moby's,Amagansett,341 Pantigo Rd,East Hampton,NY,11937,0101000020E610000049827005940A52C0D4421372EF7B4440,ChIJ9V8t10i76IkRcj-Aoa-eBIg,
Mokyo,East Village,109 St Marks Pl,New York,NY,10009,0101000020E6100000BBBFFC58FA7E52C01734B7FE145D4440,ChIJHxQBcypZwokR7-D3oe4V6Go,
Momofuku Noodle Bar,Columbus Circle,10 Columbus Cir,New York,NY,10019,0101000020E6100000CBB2710EE87E52C04328A5564E624440,ChIJKzLt4dZZwokRbv-Ebx1hBo0,
Momofuku Noodle Bar,Momofuku Noodle Bar,171 1st Ave,New York,NY,10003,0101000020E610000048ACC5A7007F52C0633C94B2565D4440,ChIJkXQ3_INZwokRE74ZvG46Jjc,
Momoya,SoHo,47 Prince St,New York,NY,10012,0101000020E610000099B52FAFBA7F52C0496CE3A4A05C4440,ChIJ4Rw7sVhZwokRJuSZSI0jb4A,
Momoya,Upper West Side,427 Amsterdam Ave,New York,NY,10024,0101000020E6100000B868A2A18E7E52C0AEAD1C0A61644440,ChIJgTrKAYZYwokRrLF7JiGwdNM,
Montauk Beach House Bar & Grill,Montauk,55 S Elmwood Ave,Montauk,NY,11954,0101000020E6100000249639025DFC51C0610212A859844440,ChIJ_VSf40pT74kRmhiiphHELDk,
Montauk Project,Montauk,240 Ft Pond Rd,Montauk,NY,11954,0101000020E6100000F0726C98FCFC51C00FB9BEB44D864440,ChIJz7zqG0-r6IkRgvGPKq-BgWA,
Monte's At the Manor,Montauk,236 Edgemere St,Montauk,NY,11954,0101000020E61000009D9E7763C1FC51C0D943561234864440,ChIJm8KDZEpV74kRl1hPl-aWoNc,
Moody Tongue Pizza,East Village,123 St Marks Pl,New York,NY,10009,0101000020E6100000E6860340EF7E52C02B6B2322105D4440,ChIJGSBX5MNZwokR8dULUeLZH5M,
Moody Tongue Sushi,West Village,150 W 10th St,New York,NY,10014,0101000020E6100000640090CF128052C075870986025E4440,ChIJGUJaVtVZwokR3VU_JU2pedg,
Moongate Lounge,Chinatown,28 Waverly Pl,San Francisco,CA,94108,0101000020E61000003B588A24079A5EC0BBD42AF29CE54240,ChIJpUlYTNmBhYARE6fZdZBiKR4,
Mosto,Mission,741A Valencia St,San Francisco,CA,94110,0101000020E61000001F3A5FFBF79A5EC018213BE47CE14240,ChIJvfcHtPR_j4ARiPrad4Watgo,
Mother's Ruin,Nolita,18 Spring St,New York,NY,10012,0101000020E6100000A745D84BAE7F52C0FF0CCA8F535C4440,ChIJY-JJoYhZwokRF8FY6XrJo34,
Nabila's,Cobble Hill,248 Court St,Brooklyn,NY,11201,0101000020E6100000800FB974A77F52C079D965AEC2574440,ChIJcb-HMTlbwokRlwa32aP_wew,
Naks,East Village,201 1st Ave.,New York,NY,10003,0101000020E6100000710244CBF37E52C053F5F1FB7F5D4440,ChIJQfYrEfNZwokRFPKHZM6aH4w,
Nami Nori,Montclair,378 Bloomfield Avenue,Montclair,NJ,7042,0101000020E6100000760A729DD68D52C04805AC8613684440,ChIJr4W1Xz1VwokRI-HqiIpeKRw,
Nami Nori,West Village,33 Carmine St,New York,NY,10014,0101000020E61000002D70CFD5338052C0E106BC5E8D5D4440,ChIJcfbyqFNZwokRUoBP92II4c0,
Nami Nori,Williamsburg,236 N 12th St,Brooklyn,NY,11211,0101000020E610000060D53DD6FB7C52C00382FCF1135C4440,ChIJS9NJoSBZwokRW6254XR11Uo,
Naro,Rockefeller Center,"610 Fifth Avenue, Rink Level",New York,NY,10020,0101000020E61000001DBBADD9987E52C03B31C4BC11614440,ChIJp7Ql8AZZwokRecf5nJr8RJU,
Nick's Pizza,Upper East Side,1814 2nd Ave,New York,NY,10128,0101000020E61000003E1AF3DFA87C52C05386600B30644440,ChIJPwPWh6VYwokRb4sccEaBC2w,
Nick & Toni's,East Hampton,136 N Main St,East Hampton,NY,11937,0101000020E61000008553E3599C0B52C0A83553902D7C4440,ChIJR2qJI-S66IkRDsNCmihMqXU,
No. 7 Restaurant,Prospect Heights,627 Vanderbilt Ave,Brooklyn,NY,11238,0101000020E61000007340B73CFB7D52C0ACB5E67DD2564440,ChIJFRTZSdNbwokRPv71NOk5GH8,
Nom Wah,Nolita,10 Kenmare St,New York,NY,10012,0101000020E61000005AE3E91EA57F52C01DE9A5F7365C4440,ChIJLxEbJoZZwokRBgg1pE4COTo,
Nom Wah,Pier 57,25 11th Ave Kiosk 11,New York,NY,10011,0101000020E6100000B7656038998052C06C120467315F4440,ChIJeW_dJC5ZwokRaQfG-JI-bYc,
Nopalito,NOPA,306 Broderick St,San Francisco,CA,94117,0101000020E610000094C8F43A189C5EC0F250CA5AF9E24240,ChIJWdx6WK6AhYARchLwAKyG4-Y,
No Sleep Cafe @ Thief,Williamsburg,95 Union Ave,Brooklyn,NY,11211,0101000020E61000009B85B57DF57C52C020186792EA5B4440,ChIJQwVjADNZwokRaaCi0RuPzWE,
Nowon - Bushwick,Bushwick,436 Jefferson St,New York,NY,11237,0101000020E61000009C43D6CD117B52C0C0B0933C945A4440,ChIJCzyNLENbwokR-lXh5FtzU70,
Nowon - East Village,East Village,507 E 6th St,New York,NY,10009,0101000020E6100000635D02C3EE7E52C0EF7C3CFAD75C4440,ChIJjReAQKxZwokRnnraeb2WJ18,
Nudibranch,East Village,125 1st Ave.,New York,NY,10003,0101000020E6100000D33EFD78157F52C0B3C9BE6D315D4440,ChIJ5Qa2Xu9ZwokRIyvK1rhdwgw,
Ocean Beach Cafe,Outer Richmond,734 La Playa St,San Francisco,CA,94121,0101000020E61000005A187D60A2A05EC028CAEF7E26E34240,ChIJg4qwGKeHhYARo41FFI_aOss,
Octavia,Pacific Heights,1701 Octavia St,San Francisco,CA,94109,0101000020E610000021054F21579B5EC030478FDFDBE44240,ChIJV183oL-AhYAR_u2Yr8GaZWo,
Okaeri Japanese Bistro,Okaeri,3515 20th St,San Francisco,CA,94110,0101000020E6100000FC3905F9D99A5EC00745F30016E14240,ChIJc2x-KdV_j4ARr3s50-Q5LcE,
Okane,Okane,669 Townsend St,San Francisco,CA,94103,0101000020E6100000D4C3865DCA995EC014D1AFAD9FE24240,ChIJjaWT5yx-j4AR0S6cwdgnD4Q,
Omakase SF,Design District,665 Townsend St,San Francisco,CA,94103,0101000020E6100000E0B9F770C9995EC04C33DDEBA4E24240,ChIJFYz55yx-j4ARFUpWF0lt4gw,
Ornithology Jazz Club,Bushwick,6 Suydam St,Brooklyn,NY,11221,0101000020E6100000DBBC1699A57B52C061BBC50D09594440,ChIJ8SrMcWVdwokRAqKQSZARpE0,
Osteria Alberico,DU,3455 S University Blvd,Englewood,CO,80113,0101000020E61000000F4757E96E3D5AC07751F4C0C7D34340,ChIJEWGg8AeBbIcRIxHpsp2a-eQ,
Other Half,Gowanus,195 Centre St,Brooklyn,NY,11231,0101000020E6100000429F54DFF17F52C092E4F8D243564440,ChIJyXHHyfZawokRm6SBxpOHUxY,
Other Half,Rockefeller Center,600 5th Ave A2,New York,NY,10020,0101000020E610000020AB82DAA47E52C0E7A7627DFF604440,ChIJ56J9GJFZwokRdJwuF-USZIs,
Other Half,Williamsburg,34 River St,Brooklyn,NY,11249,0101000020E6100000B218B66AE07D52C0404BD5E7A65B4440,ChIJ9bsn229ZwokR0CENMNxupqg,
Overstory,Financial District,70 Pine St 64th Floor,New York,NY,10005,0101000020E6100000D09508547F8052C0317CFABE6E5A4440,ChIJ_8dmJ0lbwokRIJHQFfXiMNo,
Owlbear Cafe,Mt. Pleasant,1964 Riviera Dr J,Mt Pleasant,SC,29464,0101000020E61000008E3A3AAE46F453C012F92EA52E694040,ChIJnVMSUxVz_ogRGHD5la1rr8k,
Oxomoco,Greenpoint,128 Greenpoint Ave,Brooklyn,NY,11222,0101000020E61000003907CF84267D52C03C33271E6E5D4440,ChIJ__-z7kBZwokRezHqB39zBLI,
Padoca Bakery - 67,Lenox Hill,210 E 67th St,New York,NY,10065,0101000020E61000007756C15E977D52C08D3BEF1010624440,ChIJwc5zFsJYwokRk4HHVMtS74A,
Padoca Bakery - 86,Upper East Side,210 E 67th St,New York,NY,10065,0101000020E61000007756C15E977D52C08D3BEF1010624440,ChIJwc5zFsJYwokRk4HHVMtS74A,
Palenque Colombian Food,Williamsburg,Colombian restaurant,Bar,coffee,shop,0101000020E61000004E661767677C52C0823353B5385B4440,ChIJ3_Ose-dZwokRkZMz4AVTIKs,
Palette Tea House,Noma,900 North Point St,San Francisco,CA,94109,0101000020E6100000F0208A170E9B5EC021A7AF912FE74240,ChIJ53HCdjCBhYARI-_VU7jZI-U,
Palm House,Marina,2032 Union St,San Francisco,CA,94123,0101000020E6100000E63C635FB29B5EC043C5387F13E64240,ChIJtX1s3tqAhYAR8RDMpH2eHbw,
Panzón,Greenpoint,23 Greenpoint Ave,Brooklyn,NY,11222,0101000020E61000003BF4C6776C7D52C0C3341CCE815D4440,ChIJUfCp3OlZwokRvRb3hBuLIuA,
Paper Son Coffee,SOMA,303 2nd St N102,San Francisco,CA,94107,0101000020E61000005133FF4355995EC09301FB438EE44240,ChIJR0WsBfx_j4AR1GwHWkeqeZ4,
Pappardella,Upper West Side,316 Columbus Ave,New York,NY,10023,0101000020E6100000D388F436917E52C02CB81FF0C0634440,ChIJN2DMVolYwokRZ3RY3IbatuA,
Paradiso Restaurant + Bar,Park Circle,4401 McCarthy Street,North Charleston,SC,29405,0101000020E61000009C86A8C29FFF53C0D00D4DD9E96F4040,ChIJ6cgIbrxk_ogR4K7YKh2pdv8,
Parcelle,Chinatown,135 Division St,New York,NY,10002,0101000020E61000002CD32F116F7F52C020F12BD6705B4440,ChIJI3VG1kxYwokRECoJD1lSvSY,
Parcelle,Greenwich Village,72 MacDougal St,New York,NY,10012,0101000020E6100000DF50F86C1D8052C03197546D375D4440,ChIJFXVNUJxZwokRDhvP51t1PFQ,
Park & Grove,Downtown,730 Rutledge Ave,Charleston,SC,29403,0101000020E610000046787B1002FD53C0A46DFC89CA664040,ChIJl6_JCTJ7_ogRIauRHOYdIQo,
Park Slope Ale House,Park Slope,356 6th Ave,Brooklyn,NY,11215,,ChIJwyH4GwJbwokRO0x0jD_unvw,
Passerine,Flatiron,36 E 20th St,New York,NY,10003,0101000020E61000009ACE4E06477F52C0EA03C93B875E4440,ChIJNz2NYnNZwokRmpUsT-iz-ZE,
Pastai,Chelsea,186 9th Ave,New York,NY,10011,0101000020E6100000793D98141F8052C0F47002D3695F4440,ChIJw2lMFL9ZwokRosAtly52YX4,
Patisserie Fouet,Midtown,776 9th Ave,New York,NY,10019,0101000020E6100000363AE7A7387F52C09B4B7155D9614440,ChIJ3dmVegBZwokRz873kN52PUI,
Paulie Gee's,Greenpoint,60 Greenpoint Ave,Brooklyn,NY,11222,0101000020E6100000FDE07CEA587D52C0E5D53906645D4440,ChIJuc8AM0BZwokRtpm2S66ltsE,
Pecking House,Chinatown,83 Henry St Shop 1,New York,NY,10002,0101000020E6100000542AF235957F52C0FC6772D64C5B4440,ChIJiUcz7kBbwokRJnrAWfLcqtk,
Peck Slip Social,Seaport,36 Peck Slip,New York,NY,10038,0101000020E61000003761EDFC1D8052C0E3302184985A4440,ChIJLX5S9ZpbwokRuhbbCZkqI2Y,
Penelope's Coffee & Tea,Embarcadero,121 Spear St Suite B12,San Francisco,CA,94105,0101000020E61000004687760426995EC07311DF8959E54240,ChIJq7Ci1KWBhYARqSh4Y-NX06Q,
Perry's,Pacific Heights,1944 Union St,San Francisco,CA,94123,0101000020E6100000A56BF448999B5EC0483C9D3623E64240,ChIJy3_5ONuAhYARlKgaknpqI0k,
Phat Thai,Marina,2380 Lombard St,San Francisco,CA,94123,0101000020E61000001500E319349C5EC0DF15C1FF56E64240,ChIJr6PUL3GBhYARzbSgNPNnsac,
Phil’s,Bushwick,695 Knickerbocker Ave,Brooklyn,NY,11221,0101000020E610000088A5DCD8477A52C0A6327B8FE9584440,ChIJbffRPkdcwokR2__qmTHZHVs,
Phoenix Palace,Phoenix Palace,85 Bowery,New York,NY,10002,0101000020E61000001B391CA7B27F52C0328FFCC1C05B4440,ChIJQfxkBwBbwokRdqZAdAUuTFc,
Piccolo Angolo,West Village,621 Hudson St,New York,NY,10014,0101000020E6100000B7FF00DE5F8052C03F49ABA8795E4440,ChIJE6hqUJVZwokRv2Wc3xj360Q,
Pil Pil,Upper East Side,265 E 78th St,New York,NY,10075,0101000020E6100000181B5F202D7D52C0BB004576EF624440,ChIJh-ZRBb9YwokRSMkUC8lETk4,
Pineapple Club,East Village,509 E 6th St,New York,NY,10009,0101000020E610000088E789BAEC7E52C098E37814DE5C4440,ChIJUwJYwU9ZwokR-c64nryhInI,
Pizzeria Alberico,Pearl Street - Boulder,1730 Pearl St,Boulder,CO,80302,0101000020E6100000C5B6FB0B73515AC0AA4B7CA477024440,ChIJLRKtb_fta4cRf58cCOXY8Bs,
Pizzette,Williamsburg,191 Graham Ave,Brooklyn,NY,11206,0101000020E610000036834BB8627C52C01D21277CB45A4440,ChIJk9gLf75bwokRI2fQO4j603s,
Place des Fêtes,Clinton Hill,212 Greene Ave,Brooklyn,NY,11238,0101000020E61000002B5899DF9F7D52C0478666E8E9574440,ChIJtx7ymGVbwokRzDZBJ8NVJz0,
Please Don't Tell,East Village,113 St Marks Pl,New York,NY,10009,0101000020E6100000E6C55FDBF67E52C0949EEA56115D4440,ChIJb67-ZZ1ZwokRRxBYr3GlFp0,
Poka Lola Social Club,LoDo,1850 Wazee St,Denver,CO,80202,0101000020E6100000CED83CB3C93F5AC0C922A87576E04340,ChIJ8c0qxtx4bIcRsrKdtC8dYsk,
Popi's Oysterette,Marina,2095 Chestnut St,San Francisco,CA,94123,0101000020E610000059AF223B029C5EC006674F7A8BE64240,ChIJq1hymyiBhYARRMRbKOZD6F4,
Porchetta Shop,Cannonborough,109 President St,Charleston,SC,29403,0101000020E61000000ED940BAD8FC53C0AFB321FFCC644040,ChIJCUQxfgl7_ogR1xze9C_XM4Q,
Port Sa'id,Hudson Square,88 King St,New York,NY,10014,0101000020E6100000C68B8521728052C0A321E3512A5D4440,ChIJtc2oTDJZwokRQiktCdsm9VE,
Postcard,West Village,31 Carmine St,New York,NY,10014,0101000020E61000003FC7478B338052C0876F61DD785D4440,ChIJdwBOQQBZwokRuVRbm796SnQ,
Post House,Mt. Pleasant,101 Pitt St,Mount Pleasant,SC,29464,0101000020E61000007380608E1EF853C0622D3E05C0644040,ChIJy5sQLuJw_ogRnxFgqpnQ1SY,
Prelude,Financial District,333 Battery St,San Francisco,CA,94111,0101000020E61000000B163DA6A4995EC05ACBAEC5B8E54240,ChIJAQCwLWCAhYARA4NhRN-ExYs,
Privy's Pancakes,Gramercy,223 Park Ave S,New York,NY,10003,,ChIJCWnJ7aFZwokRyVzSo17aj-M,
Public Display of Affection,Park Slope,669 Union St,Brooklyn,NY,11215,0101000020E6100000AC3C67CFE47E52C03E7518DCB6564440,ChIJY3JoJx1bwokRm1F_KUvbR64,
Quality Italian,Cherry Creek,241 Columbine St,Denver,CO,80206,0101000020E6100000B38C1E09453D5AC04BB7802B34DC4340,ChIJnwONw5V-bIcRJvVGOnWLaNk,
Quatorze,Upper East Side,1578 1st Ave,New York,NY,10028,0101000020E610000077521509DC7C52C032558BE31B634440,ChIJ8XDAKr9YwokRHkja-tYpvOY,
Quick Eternity,Financial District,22 Peck Slip,New York,NY,10038,0101000020E6100000BFE0890F228052C06625F785A15A4440,ChIJm6bGIFZbwokRFj_nvTLlvZc,
Radio Kwara,Clinton Hill,291 Greene Ave,Brooklyn,NY,11238,0101000020E610000066F3DD52737D52C0C49F974000584440,ChIJDyXcTupbwokRQtYLqQrV3ZI,
Raf's,SoHo,290 Elizabeth St,New York,NY,10012,0101000020E6100000C9CC052E8F7F52C0EA944737C25C4440,ChIJJU-UWk1ZwokRklDKrZ_9EZE,
Raku,East Village,342 E 6th St,New York,NY,10003,0101000020E61000001690ACB2257F52C041B34698FD5C4440,ChIJ8eEu0JxZwokRNFpDI_HBFmc,
Raku,Hell's Kitchen,776 9th Ave,New York,NY,10019,0101000020E6100000BF4B0405397F52C0255D8EB2D9614440,ChIJcd-UAwBZwokR2dPBrKACTm8,
Raku,SoHo,48 MacDougal St,New York,NY,10012,0101000020E6100000C1C760C5298052C0D54A8D75165D4440,ChIJo3cQ0GxZwokRUukfD7IRfKk,
Rancho Lewis,NoMo,1503 King St,Charleston,SC,29403,0101000020E6100000ADBF2500FFFC53C0739F1C0588684040,ChIJhRZB6_B6_ogRzcrTCfdU3aA,
Randolph Beer,Dumbo,82 Prospect St,Brooklyn,NY,11201,0101000020E6100000BC9EA132337F52C096D42694AB594440,ChIJix9FO6lbwokRkZyFzr3vOeg,
Razza,Jersey City,275-277 Grove St,Jersey City,NJ,7302,0101000020E6100000539FED94D68252C038B9B8DAF35B4440,ChIJFSRtpLFQwokROP1exas0wNM,
Renzo,Hampton Park Terrace,384 Huger St #4126,Charleston,SC,29403,0101000020E6100000EF54C03DCFFC53C016BF29AC54664040,ChIJbT5P4Fp6_ogRM6yv6hvX3k8,
Ricco Mediterranean Restaurant,Marina,3145 Fillmore St,San Francisco,CA,94123,0101000020E610000001FA7DFFE69B5EC0B91803EB38E64240,ChIJT38zVACBhYARt6kXf2xuSvs,
Rintaro,Mission,82 14th St,San Francisco,CA,94103,0101000020E6100000E5380197919A5EC023DBF97E6AE24240,ChIJgcIdeSZ-j4AR1BE-49mhR-E,
Ritual,Radcliffborough,145 Calhoun St UNIT 301,Charleston,SC,29401,0101000020E610000022179CC1DFFB53C0A795422097644040,ChIJr4BTw5Z7_ogRynn84Z_BHUs,
Roberta's,Bushwick,261 Moore St,Brooklyn,NY,11206,0101000020E610000057B032BFBF7B52C06E96DC723F5A4440,ChIJzSOyOg1dwokRfQ-5htUfsRY,
Roberta's,Midtown,One Penn Plaza,New York,NY,10119,0101000020E61000009D46B839727F52C035ABF08118604440,ChIJWV3KRQBZwokRZlT-Om1I_1E,
Roberta's,Williamsburg,6 Grand St,Brooklyn,NY,11249,0101000020E6100000E2D7593EDC7D52C03D81B053AC5B4440,ChIJby7B1blZwokRzCBPwiaSbTY,
Rocco's Cafe,SOMA,1131 Folsom St,San Francisco,CA,94103,0101000020E6100000E8FA3E1C249A5EC07715527E52E34240,ChIJbVQlDYKAhYARrtTWFEMRwj0,
Rocco's Sports & Recreation,Noho,1 W 3rd St,New York,NY,10012,0101000020E6100000AD589FEEAD7F52C04C5C5AD9305D4440,ChIJ2fLg9KdZwokR0cET1EjEuwk,
Rolo’s,Ridgewood,8-53 Onderdonk Ave,Ridgewood,NY,11385,0101000020E6100000766EDA8CD37952C091138145D9594440,ChIJWUhoPQhdwokRYsDwo5qMnMU,
Romeos,East Village,118 St Marks Pl,New York,NY,10009,0101000020E61000006EF34F2DFB7E52C0B813F3D30A5D4440,ChIJ5dKgkl1ZwokRVaLe0VlqPXg,
ROOH,ROOH,333 Brannan St #150,San Francisco,CA,94107,,ChIJf16Ze3iAhYAR3Yx8zTAr8Ug,
Rook Rooftop,RiNo,3770 Walnut St,Denver,CO,80205,0101000020E610000095DD27A23A3E5AC0AB8E77A27FE24340,ChIJHY18sIp5bIcRLBAT8foDKrE,
Rosalind Bakery,Financial District,4 Embarcadero Ctr #4504,San Francisco,CA,94111,0101000020E6100000D2FF722D5A995EC04C8DD0CFD4E54240,ChIJz3XEOo2BhYARl5bha2ABNmM,
Rosemary's,Stuytown,350 1st Avenue,New York,NY,10010,0101000020E6100000DDC2F835AD7E52C04C570480285E4440,ChIJqfd3jX9ZwokRS1hCsvCFcE8,
Rosemary's,West Village,18 Greenwich Avenue,New York,NY,10011,0101000020E610000091192EAFFA7F52C09A02A2ED125E4440,ChIJCW5gj5ZZwokRtfK4UZxkcr4,
Rosevale Cocktail Room,Midtown,305 W 48th St 2nd Floor,New York,NY,10036,0101000020E6100000DA1B7C61327F52C08D60E3FA77614440,ChIJ_XQGaExZwokRTmvrhBoWHUY,
Rosticceria Evelina,Clinton Hill,455 Myrtle Ave,Brooklyn,NY,11205,0101000020E6100000D771FC50E97D52C044E048A0C1584440,ChIJ6dTbB5BbwokRQyM4pOUH76I,
Rowdy Hall,Amagansett,177 Main St,Amagansett,NY,11930,0101000020E61000007C06C444140952C011F8FC73CE7C4440,ChIJq-pQXvy66IkR4_sosmglna4,
R.Slice,Midtown,1 Pennsylvania Plaza,New York,NY,10119,0101000020E61000003F6162107F7F52C00C0D9C1F2D604440,ChIJ65H5eABZwokRi1pVbvaiwxY,
R.Slice,Williamsburg,6 Grand St,Brooklyn,NY,11249,,ChIJ65H5eABZwokRi1pVbvaiwxY,
Rudy Royale,Downtown,209 E Bay St,Charleston,SC,29401,0101000020E610000013BBB6B75BFB53C0B2D7BB3FDE634040,ChIJjXrGMwx6_ogRC9WyXPVnChQ,
Ruffian,East Village,125 E 7th St,New York,NY,10009,0101000020E61000004D1B89E0FB7E52C05397D166015D4440,ChIJHfvtRp1ZwokREpFE8Z1BEKs,
Rule of Thirds,Williamsburg,171 Banker St,Brooklyn,NY,11222,0101000020E61000005F79909E227D52C060915F3FC45C4440,ChIJaQRXYuRZwokRHjAN5MkBizY,
Runner Up,Park Slope,367 7th Ave,Brooklyn,NY,11215,0101000020E6100000DF9F701BE07E52C0E2B22D8A36554440,ChIJa7TQMZFbwokRjivvo3SFNDQ,
Sabai Thai,NoMad,432 Park Ave S,New York,NY,10016,0101000020E61000002990D959F47E52C008B98B30455F4440,ChIJ83Nr8qdZwokRlQ9NQpIpcw4,
Saga,Financial District,70 Pine St 63rd Floor,New York,NY,10005,0101000020E6100000D09508547F8052C0317CFABE6E5A4440,ChIJZZlClEZbwokRZj-0-fE25tk,
Sagaponack,Flatiron,4 W 22nd St,New York,NY,10010,0101000020E61000006C09F9A0677F52C0726A6798DA5E4440,ChIJuXGLjqNZwokRDEG5LwpEBzk,
Sagaponack General Store,Sagaponack,542 Sagg Main St,Sagaponack,NY,11962,0101000020E61000008E9FD7E9D11152C05AE14C028A764440,ChIJzUXvnZe_6IkRg1Csa43tgfI,
Saigon Social,Lower East Side,172 Orchard St,New York,NY,10002,,ChIJq3bkr95ZwokRoSMtHwaDYg0,
Saison Cellar & Wine Bar,Saison,234 Townsend St,San Francisco,CA,94107,0101000020E6100000CEEEDAEF1A995EC0413E3267C7E34240,ChIJRRzWRNZ_j4ARc86WTVLCrYk,
Sami & Susu,Lower East Side,190 Orchard St,New York,NY,10002,0101000020E6100000987F4C173B7F52C0D48D19686F5C4440,ChIJRbqLkqFZwokR3E6d0zDKAko,
Sandro's,Upper East Side,322 East 86th St,New York,NY,10028,0101000020E6100000789ACC78DB7C52C0E47F97BE7C634440,ChIJj9dKtb5YwokRHtC1_HyFZG0,
Saturn Road,Cobble Hill,276 Court St,Brooklyn,NY,11231,0101000020E6100000F493A6ABAD7F52C040F4230EA6574440,ChIJN_uyy55bwokRzVyFQ6MUTZs,
Seamore's,Brookfield Place,250 Vesey St,New York,NY,10281,0101000020E6100000E0972A26FF8052C0548CE8106B5B4440,ChIJh2voNWlbwokRfmpK-ELePzA,
Sea Wolf,Bushwick,19 Wyckoff Ave,Brooklyn,NY,11237,0101000020E6100000A5F622DA0E7B52C0094845AD7A5A4440,ChIJO_MlXh1cwokR1YDm45sn_Wo,
Semma,Greenwich,60 Greenwich Ave,New York,NY,10011,0101000020E6100000A85CE00C0A8052C0192AC6CB365E4440,ChIJxZmzO7hZwokRx2fls4uU4YU,
Sen,Sag Harbor,23 Main St,Sag Harbor,NY,11963,0101000020E610000085549B49E51252C0A41C27E032804440,ChIJTSONMSW96IkR6NRyMRPGmS8,
Senor Bear,LoHi,3301 Tejon St,Denver,CO,80211,0101000020E6100000DC44D213BB405AC03D76BC6EB6E14340,ChIJr6-a8JJ4bIcR5RM53KOyLI8,
Sereneco,Greenpoint,113 Franklin St,Brooklyn,NY,11222,0101000020E6100000139ED0EB4F7D52C0F1BDBF417B5D4440,ChIJH_-tMGlZwokRqIqHR22D-zU,
Sereneco Cafe,Greenpoint,113 Franklin St,Brooklyn,NY,11222,0101000020E61000005AD582EB4C7D52C0D03C8218725D4440,ChIJH_-tMGlZwokRqIqHR22D-zU,
Sesame Burgers and Beer,Mt. Pleasant,675 Johnnie Dodds Blvd,Mt Pleasant,SC,29464,0101000020E6100000A20A7F8637F853C00281CEA44D674040,ChIJ9Y_hi1Zw_ogRtO5Kg6Py3vU,
Seven Hills,Russian Hill,1896 Hyde St,San Francisco,CA,94109,0101000020E610000006CA589ACB9A5EC0CE34639530E64240,ChIJc1RqC-yAhYARWmmWMJ-xkDs,
Share House,Downtown,23 Ann St,Charleston,SC,29403,0101000020E610000082C476F700FC53C03999B85510654040,ChIJYTrmDWh7_ogRu2xztQY2jCI,
Shinji's,Flatiron,37 W 20th St,New York,NY,10011,0101000020E61000007BA2EBC28F7F52C071FF91E9D05E4440,ChIJiy6z0-NZwokR7WHqoTS8wSE,
Shmoné,Greenwich Ave,61 W 8th St,New York,NY,10011,0101000020E61000000E130D52F07F52C06E1805C1E35D4440,ChIJBdMLKZBZwokRJ0tYbQ6nfZ4,
Shmoné Wine,Greenwich Village,65 W 8th St,New York,NY,10011,0101000020E6100000C0417BF5F17F52C0FC709010E55D4440,ChIJ5eQtHWZZwokRHoU7Tau8axs,
Shuggie’s Trash Pie + Natural Wine,Shuggie’s Trash Pie + Natural Wine,3349 23rd St,San Francisco,CA,94110,0101000020E6100000F0EA0BD7D99A5EC0F2AF8ADC78E04240,ChIJr5cI0LR_j4ART457wcGBDoY,
Shuko,Greenwich Village,47 E 12th St,New York,NY,10003,0101000020E6100000DB5CEB41777F52C0EFEAB01DE75D4440,ChIJe8WrB5lZwokREBs3DZYJyKc,
Sightsee,Hampton Park Terrace,698 Rutledge Ave,Charleston,SC,29403,0101000020E6100000D5E76A2BF6FC53C02F3196E997664040,ChIJ28KoQWN7_ogRzSP8Hzqzfhw,
Sip&Guzzle,West Village,29 Cornelia St,New York,NY,10014,0101000020E6100000DEFE9FE5268052C0FB43B3A5A85D4440,ChIJ49KsB19ZwokR8VwrMbECQr8,
Smith & Mills,Rockefeller Center,"30 Rock, Rink Level",New York,NY,10112,0101000020E61000004D7BEDC2B77E52C0BF2D9E3135614440,ChIJe-B7YGlZwokRF1qMLUO16Yw,
Smokey Buns,East Hampton,68 Park Pl,East Hampton,NY,11937,0101000020E6100000BC4B981FEE0B52C0A79F26E9507B4440,ChIJO0j96AS76IkRow_V0euMNzs,
Sobre Masa,Bushwick,52 Harrison Pl,Brooklyn,NY,11237,0101000020E61000006EBEBFC1987B52C0AC22889B7A5A4440,ChIJmeKSwPFdwokRZ--71Rq0GBY,
Softside,Soho,51 Spring St,New York,NY,10012,0101000020E6100000DC4AAFCDC67F52C0E50CC51D6F5C4440,ChIJDa4nuuVZwokRzsEZoXvbT8w,
Someday Bar,Brooklyn Heights,364 Atlantic Ave,Brooklyn,NY,11217,0101000020E6100000BD26F17C207F52C0F32DE032F9574440,ChIJW7hnbe5bwokRG2IHXWO1xcA,
Sorry Gorgeous,RiNo,1350 40th Street Entrance on,Denver,CO,80205,0101000020E61000008463963D093E5AC0C36FF9FEBCE24340,ChIJ_xuUJwB5bIcR7LlApIZXg2g,
Sound Booth (at Port Sa'id),Hudson Square,88 King St,New York,NY,10014,0101000020E6100000B42094F7718052C0022A1C412A5D4440,ChIJtc2oTDJZwokRQiktCdsm9VE,
South Edison,Montauk,17 S Edison St,Montauk,NY,11954,0101000020E6100000749B70AF4CFC51C050A912656F844440,ChIJN2EK2VdT74kRZ4a000eEozU,
Spaghetti Incident,Lower East Side,231 Eldridge St,New York,NY,10002,0101000020E61000007738BC895C7F52C0132DFD53805C4440,ChIJa00rEYRZwokRP-GRuN-bLTQ,
Speedy Romeo,Clinton Hill,376 Classon Ave,Brooklyn,NY,11238,0101000020E61000003E0A5714717D52C052436355FF574440,ChIJOTob_r1bwokRtUoNNbcmw_g,
Spicy Moon,Chelsea,232 8th Ave,New York,NY,10011,0101000020E6100000CFBF5DF6EB7F52C0F419506F465F4440,ChIJJbctbLdZwokRUbBIho1wN8g,
Spicy Moon,East Village,328 E 6th St,New York,NY,10003,0101000020E6100000636134D12C7F52C0B952C9E8095D4440,ChIJ7x3Pe11ZwokRLpfe6va9dqs,
Spicy Moon,Greenwich Village,68 W 3rd St,New York,NY,10012,0101000020E61000001A63B7DEE47F52C0FFCCCECE605D4440,ChIJZRP3DW9ZwokR6NnJ9PaMZxI,
Spicy Moon,Lower East Side,265 Bowery,New York,NY,10002,0101000020E61000006DBF45B6837F52C0CD2F7C839E5C4440,ChIJAb8jiJZZwokROX7aeBYf2I4,
Spike's Coffees and Teas,The Castro,4117 19th St,San Francisco,CA,94114,0101000020E610000072F49D04DB9B5EC0843012352CE14240,ChIJIwGPyxp-j4ARaAv8glHW8q4,
SPQR,Pacific Heights,1911 Fillmore St,San Francisco,CA,94115,0101000020E6100000CC48A54EC39B5EC042451377CEE44240,ChIJCUQFkseAhYARpkr3emAuxp8,
Spring Cafe Aspen,Greenwich Village,14 West 4th Street,New York,NY,10012,0101000020E6100000ADA6EB89AE7F52C0BBB72231415D4440,ChIJ9faizgBZwokRUuPiFIDFhFs,
Springs Tavern and Grill,East Hampton,15 Fort Pond Blvd,East Hampton,NY,11937,0101000020E6100000818F66D1E00A52C08C8BA37213844440,ChIJRykSDwql6IkRMFvSRd_h91U,
Spygold,Husdon Yards,451 Tenth Ave,New York,NY,10018,0101000020E6100000293FA9F6E97F52C0DBF97E6ABC604440,ChIJcZp1Y2tZwokRWM2nLr5rz_4,
Sra. Martinez,Coral Gables,2325 Galiano Street,Coral Gables,FL,33134,,ChIJE71m6CK32YgRvzVM73VTlts,
Starchild Rooftop,Midtown,305 W 48th St,New York,NY,10036,0101000020E610000046EC1340317F52C0E1EEACDD76614440,ChIJZa0wOP5ZwokRsVyDcNLoUlg,
Stars Restaurant,Radcliffborough,495 King St,Charleston,SC,29403,0101000020E61000000E87A5811FFC53C0DAAD65321C654040,ChIJJxlYSGp6_ogRyfL8KDjhLkg,
Steuben's Uptown,Uptown,523 E 17th Ave,Denver,CO,80203,0101000020E61000004B92E7FABE3E5AC084DA25602ADF4340,ChIJI8vB8Ct5bIcR40G-TvheRxE,
St. Mazie,Williamsburg,345 Grand St,Brooklyn,NY,11211,0101000020E6100000E9F582AA2C7D52C07A3911E2365B4440,ChIJSy8Bbl9ZwokR8QnOQHNn4hk,
Stone Park Cafe,Park Slope,324 5th Ave,Brooklyn,NY,11215,0101000020E61000005C3B36D5F07E52C01719982728564440,ChIJF6deL_5awokRh2ohKTMG2HE,
Strange Delight,Fort Greene,63 Lafayette Ave,Brooklyn,NY,11217,0101000020E6100000602FD6AF767E52C068120E06FE574440,ChIJSZ__agBbwokRFqNZkOBfbsk,
Stretch Pizza - Park Ave,Flatiron,331 Park Ave S,New York,NY,10010,0101000020E6100000213D450E117F52C07E18213CDA5E4440,ChIJETw36R9ZwokRmPYazyfvpZ4,
St. Tropez,West Village,304 West 4th Street,New York,NY,10014,0101000020E6100000B61490F63F8052C068B114C9575E4440,ChIJo9tLC5VZwokR9t8kMnIACK0,
Subject: A Cocktail Bar,Lower East Side,188 Suffolk St,New York,NY,10002,0101000020E610000004279133037F52C0DEF5E340595C4440,ChIJ98DPPIJZwokRLqsdDDnOPs8,
Sukh,Fort Greene,723 Fulton St,Brooklyn,NY,11217,0101000020E6100000DBB5E2A17F7E52C0487873E0FE574440,ChIJo8ltIwBbwokRnpjtIPOzZ2Q,
Sunday in Brooklyn,Williamsburg,348 Wythe Ave,Brooklyn,NY,11249,0101000020E6100000532A6D0EC87D52C072673FF16F5B4440,ChIJkRWC9WFZwokRfa5Uzor3e-g,
Sunday To Sunday,Lower East Side,88 Orchard St,New York,NY,10002,0101000020E6100000084CFA41607F52C0B5ABF8D9EB5B4440,ChIJowZfPodZwokRdF99W8bxeJo,
Sunday Vinyl,LoDo - Denver,1803 16th St Mall,Denver,CO,80202,0101000020E61000005E3CCD1319405AC0A3CC069964E04340,ChIJxxGvqc55bIcRQHfDdw9syE0,
Sunn's,Sunn’s,139 Division St,New York,NY,10002,0101000020E61000008D2CF41C6C7F52C0DE019EB4705B4440,ChIJJbrdCQBbwokR0msB9eFOzEE,
SuperMegaBien,RiNo,1260 25th St,Denver,CO,80205,0101000020E6100000D2544FE61F3F5AC05DA21FB2EDE04340,ChIJE6HJ3ml5bIcRhwzwllks4ug,
Suprema Provisions,West Village,305 Bleecker St,New York,NY,10014,0101000020E6100000E7D51FE93A8052C0B76F96FFCF5D4440,ChIJR4Ced5NZwokREuYXRM57BmY,
Sushi Hakko,Pacific Heights,2184 Union St,San Francisco,CA,94123,0101000020E610000090F9DBF9D99B5EC0B2930BDF0CE64240,ChIJ0wnbFlaBhYARUol-xwVfXjk,
Sushi Ichimura,Tribeca,412 Greenwich St,New York,NY,10013,0101000020E61000008456BF10A28052C0BF77EE3F6B5C4440,ChIJU10X_TJZwokRuSfnHw4dhQE,
Sushi of Gari,Hell's Kitchen,347 W 46th St,New York,NY,10036,0101000020E6100000D48448E1557F52C059EB7A585E614440,ChIJxbq5_FNYwokRwWVy7B9Kwrc,
Sushi of Gari,Upper East Side,402 E 78th St,New York,NY,10075,0101000020E6100000AA6D1EE2FA7C52C0D7D2ED36B9624440,ChIJs9JDurhYwokRSjnRF8h3US8,
Sushi of Gari,Upper West Side,370 Columbus Ave,New York,NY,10024,0101000020E61000001FB2ED597C7E52C04A8A236AFD634440,ChIJRf0k0Y5YwokR7hh2IBTl3LY,
Sweet Rose Creamery,Brentwood Country Mart,"225 26th Street, Suite 51",Santa Monica,CA,90402,0101000020E610000036AE7FD7679F5DC05C21ACC612064140,ChIJx3qVjFWjwoARvcJ3GGZ4YJQ,
Tabaré,Bushwick,1006 Flushing Ave,Brooklyn,NY,11237,0101000020E61000008D6FA166907B52C0A11D2D47165A4440,ChIJ80WOzERdwokRXjGSASkDZxk,
Tabaré,Williamsburg,221 S 1st St,Brooklyn,NY,11211,0101000020E6100000B4AD80D8607D52C0063FD3F8435B4440,ChIJ_Xt15F9ZwokRUWuI3cz_VHM,
Taco Boy,Downtown,217 Huger St,Charleston,SC,29403,0101000020E610000027A25F5B3FFC53C02618CE35CC664040,ChIJT2PTq2B6_ogRIrWFtaGTRrU,
Taco Boy,Folly Beach,106 E Ashley Ave,Folly Beach,SC,29439,0101000020E6100000F4C5DE8B2FFC53C0C939B187F6534040,ChIJvTM9cerX_YgR6VAMsi9emZ0,
Taco Boy,Summerville,106 Front St,Summerville,SC,29486,0101000020E6100000D1AFAD9FFE0854C0A4552DE928854040,ChIJg5GbV6-L_ogR3TZ5lfdU_qw,
Tacolicious,Marina,2250 Chestnut St,San Francisco,CA,94123,0101000020E6100000367997AE2D9C5EC03156D6D985E64240,ChIJkbv8N9eAhYARMyu5POX9pRk,
Tacolicious,Mission,741 Valencia St.,San Francisco,CA,94110,0101000020E610000054573ECBF39A5EC07E74EACA67E14240,ChIJfxUo-Od_j4ARz1tjyoQIPAM,
Tacombi,Financial District,74 Broad St,New York,NY,10004,0101000020E61000001F6BCC54BF8052C0BDB51C79375A4440,ChIJCxsgff1bwokRt-khy5Okqpg,
Tacombi,Flatiron,30 W 24th St,New York,NY,10010,0101000020E61000003438898E707F52C03D9C38EB1B5F4440,ChIJY-_fXKRZwokRx2b6VzH6su4,
Tacombi,Forest Hills,71-22 Austin St,Forest Hills,NY,11375,0101000020E6100000C1A0C2E5067652C01ACED9B81F5C4440,ChIJWwL9DZdfwokR2NsMW_PCDxk,
Tacombi,Fort Greene,25 Lafayette Ave,Brooklyn,NY,11217,0101000020E610000059DABF2A957E52C09F6EF15FF6574440,ChIJtUqnIhpbwokRfgI3evXbj-g,
Tacombi,Greenwich Village,255 Bleecker St,New York,NY,10014,0101000020E6100000626279752D8052C015847F7F9B5D4440,ChIJe0S8sZNZwokRAdgEV5COiNE,
Tacombi,Long Island City,27-10 43rd Ave,Long Island City,NY,11101,0101000020E6100000C26EE462457C52C086C616B7BD5F4440,ChIJp9WpPSxZwokR9e5KFVB9lWQ,
Tacombi,Midtown,23 W 33rd St,New York,NY,10001,0101000020E610000090A1519E1C7F52C0CC699FE3D05F4440,ChIJTQeoA6lZwokRpXP-fGPn4oU,
Tacombi,Nolita,267 Elizabeth St,New York,NY,10012,0101000020E6100000C2A1E733997F52C02E3B0694B15C4440,ChIJdfD8moVZwokRO6vxjXAtoWs,
Tacombi,Upper East Side,202 E 70th St,New York,NY,10021,0101000020E6100000091D1C1A837D52C0A2E9535C54624440,ChIJRc_0nbJZwokRPKi2zXCpaaY,
Tacombi,Upper West Side,377 Amsterdam Ave,New York,NY,10024,0101000020E6100000554A1D5D9F7E52C08D85D1D630644440,ChIJS4_amZhZwokRI32P3NwpsRU,
Tacombi,Westbury,1226 Old Country Rd,Westbury,NY,11590,0101000020E6100000FB1F91C5796652C0A9BB4D88685F4440,ChIJO0AoGdKHwokRhGmV5GN8o-k,
Tacombi,West Loop,126 N Peoria St,Chicago,IL,60607,0101000020E610000080DBC9969BE955C0478DAE7724F14440,ChIJY3zOPy8tDogR9JpAbCOy-Es,
Tacombi,Wicker Park,1442 N Milwaukee Ave,Chicago,IL,60622,0101000020E610000094F947DF24EB55C0BF65A95038F44440,ChIJXzk9Gw3TD4gRt_-bxIe8jdE,
Tacombi,Williamsburg,242 Metropolitan Ave,Brooklyn,NY,11211,0101000020E610000047826F13687D52C0C6104104855B4440,ChIJITt5Kl5ZwokRO71zHAwXV2g,
Tacos 1986,West Village,1 Cornelia St,New York,NY,10014,0101000020E610000018963FDF168052C04815C5ABAC5D4440,ChIJG4KjIzNZwokRoNPsES4eqaA,
Tacos Tequila Whiskey,LoHi,3300 W 32nd Ave,Denver,CO,80211,0101000020E610000027614B34ED415AC07900304388E14340,ChIJG5tJJZ14bIcRACrcxGNDuJg,
Talea,Bryant Park,22 W 40th St,New York,NY,10018,0101000020E61000002B6A9F70EA7E52C01EA1BBF358604440,ChIJ8YhauntZwokRzw7MOoKb1-I,
Talea,Cobble Hill,61 Bergen St,Brooklyn,NY,11201,0101000020E6100000378BECD76A7F52C07ADE705BF9574440,ChIJ7Xjm5QlbwokREJkEk_skS48,
Talea,Midtown,160 W 32nd St,New York,NY,10001,0101000020E610000090156B9A6B7F52C05C9BDFDBE95F4440,ChIJ8YhauntZwokRzw7MOoKb1-I,
Talea,West Village,102 Christopher St,New York,NY,10014,0101000020E6100000E0F508C64D8052C0C7327843DD5D4440,ChIJd5DfLnNZwokRRnTNeWXMEZ4,
Talea,Williamsburg,87 Richardson St,Brooklyn,NY,11211,0101000020E61000006C3107C3AE7C52C0E91C9A03035C4440,ChIJ5TvP21FZwokRLFjbliEhRUc,
Tasca NYC,Upper West Side,505 Columbus Ave,New York,NY,10024,0101000020E610000067E43D18427E52C009C7873485644440,ChIJg-QDdKFZwokRumpX4_PxJuU,
Tavernetta,LoDo,1889 16th St Mall,Denver,CO,80202,0101000020E61000001FAADF3B20405AC0EB6A97DB62E04340,ChIJ5fIM0MN4bIcRb-fymS7_krs,
Tempest,French Quarter,32 N Market St Suite C,Charleston,SC,29401,0101000020E61000008869DFDC5FFB53C0CDAB3AAB05644040,ChIJiUKdZs17_ogREZcxVv3eh-8,
Temple Bar,Temple Bar,332 Lafayette St,New York,NY,10012,0101000020E6100000D13DEB1AAD7F52C05FF64608EA5C4440,ChIJnSU3A0ZZwokR7idYNeIPu5o,
Terzo,Terzo,3011 Steiner,San Francisco,CA,94123,,ChIJK8BnWtCAhYAR-QPED11PXEY,
Tha Phraya,Upper East Side,1553 2nd Ave,New York,NY,10028,0101000020E61000008FC93DB8167D52C0A0AA9DBC23634440,ChIJXbVh8gRZwokR-uEVlFisxFE,
The Alderman,Midtown,150A W 48th St,New York,NY,10036,0101000020E61000002F1686C8E97E52C0DDEBA4BE2C614440,ChIJFfDd9lVYwokRHprgDkRnHh4,
The Archer,East Central,601 Meeting St Ste. 140,Charleston,SC,29403,0101000020E6100000F858558A78FC53C056EF1582C1664040,ChIJPaaxZsJ7_ogRSbOGoLwL9VY,
The Bakery at Greywind,Hudson Yards,451 10th Ave,New York,NY,10018,0101000020E61000000DE42E8CEE7F52C0566C2BC0C8604440,ChIJj6BPafxZwokRcskGmEJX2As,
The Bar at The Spectator,French Quarter,67 State St,Charleston,SC,29401,0101000020E6100000930035B56CFB53C09A982EC4EA634040,ChIJwXiSIp97_ogR81S_Th4qiVs,
The Big Eat,LoDo1,1400 Curtis Street,Denver,CO,80204,,ChIJS_vG1dF4bIcRHT1-cH_igaM,
The Big Eat,LoDo2,1400 Curtis Street,Denver,CO,80204,,ChIJS_vG1dF4bIcRHT1-cH_igaM,
The Big Eat,LoDo3,1400 Curtis Street,Denver,CO,80204,,ChIJS_vG1dF4bIcRHT1-cH_igaM,
The Big Eat,LoDo4,1400 Curtis Street,Denver,CO,80204,,ChIJS_vG1dF4bIcRHT1-cH_igaM,
The Big Eat,LoDo5,1400 Curtis Street,Denver,CO,80204,,ChIJS_vG1dF4bIcRHT1-cH_igaM,
The Big Eat,LoDo6,1400 Curtis Street,Denver,CO,80204,,ChIJS_vG1dF4bIcRHT1-cH_igaM,
The Blue Light,Pacific Heights,1979 Union St,San Francisco,CA,94123,0101000020E610000013132FAAA09B5EC0D9A4EC3E11E64240,ChIJvVG_OtuAhYARhrfEv3QiQLA,
The Brixton,Marina,140 Union St,San Francisco,CA,94123,0101000020E610000080A423C8CB9B5EC01F1D4D1A15E64240,ChIJr066l9qAhYARBzcA3aD1zXM,
The Bronze Owl,Midtown,52 W 33rd St,New York,NY,10001,0101000020E6100000B66D73BE337F52C0F8BC87F0D45F4440,ChIJYZdXSABZwokRozRIvQvhL-s,
The Cactus Shop,Williamsburg,231 Kent Ave,Brooklyn,NY,11249,0101000020E6100000EAE31163C97D52C0A3E2EDD4BE5B4440,ChIJ_dEen79ZwokRCcfpTzsSprc,
The Coffee Counter,French Quarter,237 Meeting St,Charleston,SC,29401,0101000020E6100000D49AE61DA7FB53C04CA94BC631644040,ChIJU3WDczx7_ogR525G2DE5d8Q,
The Commons Chelsea,Chelsea,128 7th Ave,New York,NY,10011,0101000020E61000003FC8B260E27F52C0C2A38D23D65E4440,ChIJiXJVzLtZwokRbeoV2XxLOdg,
The Corner Office Restaurant + Martini Bar,LoDo,1401 Curtis Street,Denver,CO,80202,0101000020E6100000D0019365D23F5AC0FA0ED99B73DF4340,ChIJ59c0J9B4bIcRP7IDgFozjiw,
The Daily,Buckhead,3705 Northside Pkwy NW,Atlanta,GA,30327,0101000020E61000002E35609D851B55C08F300BFC68ED4040,ChIJ42f6OcsP9YgRKgWhS9P-xSw,
The Daily,Cannonborough,652 B King St,Charleston,SC,29403,0101000020E6100000F2BAD97A61FC53C0C91CCBBBEA654040,ChIJDdSww0J6_ogRvvj8m1N0UbY,
The Daily,Inman Park,100 Hurt St NE,Atlanta,GA,30307,0101000020E6100000163B788CA71655C007E37E1BE4E04040,ChIJWTGUwM8H9YgRpg7-fUaVBVg,
The Daily,West Midtown,763 Trabert Ave NW,Atlanta,GA,30318,0101000020E61000007C293C68761A55C01155F833BCE54040,ChIJ721mea0F9YgRprcP8IRu09U,
The Drunken Munkey,Upper East Side,338 E 92nd St,New York,NY,10128,0101000020E6100000BDE88601A67C52C02335FE8EF2634440,ChIJi8Yi9a9YwokRco5vySESCUk,
The Dutch,SoHo,131 Sullivan St,New York,NY,10012,0101000020E61000006564DA48238052C055BCDB06FF5C4440,ChIJ3RB9uI1ZwokRxCJXW-HpYZI,
The Garret West,West Village,296 Bleecker St,New York,NY,10014,0101000020E61000000CE60FED3C8052C06A7690E0C25D4440,ChIJkdFGdJNZwokRY_FA1UjcHGI,
The Greats of Craft,LIC,10-15 43rd Avenue,Long Island City,NY,11101,0101000020E6100000F5A0A014AD7C52C0069FE6E445604440,ChIJL0xJb_ZZwokRfmKufMDAycE,
The Greats of Craft,Midtown East,983 1st Ave.,New York,NY,10022,0101000020E6100000EE98BA2BBB7D52C0C573B680D0604440,ChIJs6AxqHdZwokRwkvw64aePmI,
The Green Room,Sag Harbor,90 Main St,Sag Harbor,NY,11963,0101000020E6100000E12DEB59EB1252C07106DA780B804440,ChIJpWi5G_S96IkRVVn_x_Wkcpg,
The Hamilton,Upper West Side,998 Amsterdam Ave,New York,NY,10025,0101000020E6100000F58F74BCB87D52C0C1A50815C1664440,ChIJcQDwuzz2wokR1N2euVBPAjM,
The Harlow,James Island,1015 Harbor View Rd,Charleston,SC,29412,0101000020E6100000F0164850FCFB53C0F488D1730B5F4040,ChIJhXhO4UR5_ogRMvd7NEEgzSY,
The Homestead,Mission,2301 Folsom St,San Francisco,CA,94110,0101000020E61000005494A69C8A9A5EC022DD747055E14240,ChIJvzf2ODp-j4ARFdkUw7a_nTw,
The House Of Shields,The House Of Shields,39 New Montgomery St,San Francisco,CA,94105,0101000020E610000030E4C74EAE995EC037894160E5E44240,ChIJP6l_oGKAhYARafMdGyI-75Q,
The Hunterian,Upper East Side,413 E 70th St,New York,NY,10021,0101000020E61000006C7B16DF2B7D52C0F719BC5411624440,ChIJiVD59uZZwokRUwIDtSPgKX0,
The Liberties,The Liberties,998 Guerrero St,San Francisco,CA,94110,0101000020E610000094522BA7189B5EC0B38300CFACE04240,ChIJXxwyPT5-j4ARMj_hNCaaXZA,
The Little Pig,Boerum Hill,497 Atlantic Ave,Brooklyn,NY,11217,0101000020E61000007F556DE9CD7E52C0DC99BA0BC8574440,ChIJF2grHfFbwokRMJul5yRY4cw,
The Lost Draft,SoHo,398 Broome St,New York,NY,10013,0101000020E61000003554D680D27F52C04894AC79445C4440,ChIJHcFFXH9ZwokR_QKedPacLiQ,
The Market at Paradiso,Park Circle,4399 McCarthy Street,North Charleston,SC,29405,0101000020E61000009C86A8C29FFF53C0D00D4DD9E96F4040,ChIJN5ZDFQJl_ogRgxo2x_fmfiY,
The Mary Lane,West Village,99 Bank St,New York,NY,10014,0101000020E6100000F4B086C7688052C0546EDDAB4D5E4440,ChIJvfpl3GpZwokR9Doyl16Ku_w,
The Morris,The Morris,2501 Mariposa St,San Francisco,CA,94110,0101000020E610000053C59E87249A5EC05C02F04FA9E14240,ChIJqZE4DTF-j4ARUYdqdEEgh8k,
The MOUTH Bar + Restaurant,Williamsburg,20 Marcy Ave,Brooklyn,NY,11211,0101000020E6100000C73FD8CE1C7D52C06B3986B6525B4440,ChIJteoD3TJZwokR2RQYq59OS60,
The Musket Room,Nolita,265 Elizabeth St,New York,NY,10012,0101000020E61000005143C0C69A7F52C06C9BF39DA95C4440,ChIJ3TJ4moVZwokRkyy0hZnv_RA,
The Nickel,LoDo,1100 14th St,Denver,CO,80202,0101000020E61000008390E2D2E73F5AC0479BF4087FDF4340,ChIJi9f67894bIcRRrpTdCLK93o,
The OG,The Original,1600 20th St,Denver,CO,80202,0101000020E6100000961D8766C33F5AC08FD5F72BAEE04340,ChIJ7WDnQ3h5bIcR6Cyr5r7ji_k,
The Ox,Greenpoint,52 N 11th St,Brooklyn,NY,11249,0101000020E6100000726F0A27627D52C06981F8AB7A5C4440,ChIJB7fvEKVZwokRylYesyLZxv8,
The Palm Court at The Plaza Hotel,Midtown,768 5th Ave,New York,NY,10019,0101000020E6100000CF07AA815E7E52C045AA5C07F1614440,ChIJYaVdffBYwokRCwC_C_S-tbs,
The Pass,Cannonborough,207-A St Philip St,Charleston,SC,29403,0101000020E610000016A5846055FC53C04242942F68654040,ChIJ-a0VOdp7_ogRE9Ems6Nte18,
The Patio,Marina,3232 Scott St,San Francisco,CA,94123,0101000020E61000002046088F369C5EC09A643FE65EE64240,ChIJ8anRoNaAhYARw_7AiSXOyBI,
The Press,Cannonborough,221 Coming St,Charleston,SC,29403,0101000020E6100000A298BC0166FC53C02844C02154654040,ChIJ2-G-_Kd7_ogRqsUkYpokplA,
The Purple Tongue Wine Bar,Hell's Kitchen,410 W 43rd St,New York,NY,10036,0101000020E61000009F1F46088F7F52C0B05417F032614440,ChIJw4INJQBZwokRQDsl00Ujaig,
The Puttery,Meatpacking,446 W 14th St,New York,NY,10014,0101000020E6100000AA9B30067B8052C055078A69F05E4440,ChIJUxpywGVZwokRIvAIwd-hcrc,
The Refuge,Isle of Palms,1517 Palm Blvd suite a,Isle of Palms,SC,29451,0101000020E61000003AAFB14B54F253C0C3B986191A654040,ChIJn5C08qlz_ogRsEyfIRdjQBg,
The Roll,Pacific Heights,2184 Union St,San Francisco,CA,94123,0101000020E610000090F9DBF9D99B5EC0B2930BDF0CE64240,ChIJGxgWxiWBhYAR71LXuTFYxR4,
The Seafire Grill,Midtown East,158 E 48th St,New York,NY,10017,0101000020E610000046239F573C7E52C0E71C3C139A604440,ChIJpYNIR_1YwokRNMXI4Qk1lwQ,
The Sentinel,The Sentinel,37 New Montgomery St,San Francisco,CA,94105,0101000020E610000035FA87E3AF995EC09B2ED516E8E44240,ChIJcTnoH4iAhYARFWB-p5hD9ek,
The Shakespeare,Midtown East,24 E 39th St,New York,NY,10016,0101000020E61000004668BA8DBC7E52C06909E8740F604440,ChIJI7jw2ABZwokR_N3wkrCRL0A,
The Standard Biergarten,Meatpacking,848 Washington St,New York,NY,10014,0101000020E61000007579833B858052C060630431D15E4440,ChIJQyDv3spZwokRrrN2ugqm6Vs,
The Stand - Comedy Club,The Stand: Comedy Club,116 E 16th St,New York,NY,10003,0101000020E610000026B21E14437F52C017BF5535205E4440,ChIJgWBWFaBZwokRfOWdBPY5Y0o,
The Ten Bells,Lower East Side,247 Broome St,New York,NY,10002,0101000020E61000007F77E1BD597F52C081D1E5CDE15B4440,ChIJPeCaOIdZwokRXr36ali2z_k,
The Ten Bells Brooklyn,Bushwick,65 Irving Ave,Brooklyn,NY,11237,0101000020E61000003DDA931B207B52C0D4861E8C335A4440,ChIJv5QvLQddwokR8sH0Q-NHt5Q,
The Third Floor,Chinatown,433 Clay St,San Francisco,CA,94111,0101000020E61000009291B3B0A7995EC092CB7F48BFE54240,ChIJ5ZJ8MmCAhYARlWdcG-Y51NM,
The Tippling House,Cannonborough,221 Coming St,Charleston,SC,29403,0101000020E61000007E8E8F1667FC53C040A0336953654040,ChIJ3Smbkrx7_ogR0kLofdrh90s,
The Tusk Bar,NoMad,7 E 27th St,New York,NY,10016,0101000020E6100000507FAC962A7F52C0F4BAEAA6395F4440,ChIJ81FEDgBZwokR6hAwPtR8c-o,
The Wooly,Nolita,390 Broome St,New York,NY,10013,0101000020E61000002ADE116FCD7F52C046915C29465C4440,ChIJF_I2YsVZwokRp-Q1focBJpw,
Thief,Williamsburg,595 Union Ave,Brooklyn,NY,11211,0101000020E61000006E853567F57C52C068B337D6EC5B4440,ChIJQwVjADNZwokRaaCi0RuPzWE,
Third Falcon,Fort Greene,360 Myrtle Ave,Brooklyn,NY,11205,0101000020E6100000327216F6347E52C0CD8D9080C2584440,ChIJT0Pe_qJbwokR6Ql0YY5qF8I,
Threes Brewing,Gowanus,333 Douglass St,Brooklyn,NY,11217,0101000020E610000025F94CC9DA7E52C0749458CA08574440,ChIJ__u3R6tbwokRYMOym8O83H0,
Threes Brewing,Greenpoint,113 Franklin St,Brooklyn,NY,11222,0101000020E610000075F9F0594C7D52C0DF8754CB825D4440,ChIJE6U0R0BZwokRqbil1N5FfAM,
Thursday Kitchen,East Village,424 E 9th St,New York,NY,10009,0101000020E6100000AB293F9BF57E52C098174D792A5D4440,ChIJVyFicJ1ZwokR2oIygOmovWw,
Thyme Bar,Chelsea,20 W 23rd St,New York,NY,10010,0101000020E61000008C68D18C657F52C05FBAD280F35E4440,ChIJGeLvoN9ZwokRyjK1gD08W7Q,
Tia Pol,Chelsea,205 10th Avenue,New York,NY,10011,0101000020E6100000BABA63B14D8052C0ED444948A45F4440,ChIJ8RjtPrhZwokRVZXEfLUKtM4,
Tiki Chick,Upper West Side,517 Amsterdam Ave,New York,NY,10024,0101000020E61000008CE1A0736D7E52C0FCB44071B6644440,ChIJh3HkKvdZwokR-8i3PwLN_mI,
Tio Pepe,West Village,168 West 4th Street,New York,NY,10014,0101000020E610000017BEFFB4198052C09B6F8349BB5D4440,ChIJ06Eo6ZNZwokR_ngr5nAD7do,
Tolo,Lower East Side,28 Canal St,New York,NY,10002,0101000020E61000004FB7A283647F52C062E6F16A6F5B4440,ChIJQSKt-VdbwokRRPjIjPe6XEA,
Tonchin,Williamsburg,109 N 3rd St,Brooklyn,NY,11249,0101000020E61000000C0D1F6C8C7D52C04B1FBAA0BE5B4440,ChIJVQw7S69ZwokRxkRkuFLa494,
Torch & Crown Brewing Company,SOHO,12 Vandam St,New York,NY,10013,0101000020E610000007EF6036468052C039243222F55C4440,ChIJFcrad0_1wokRgswE_VOwb4o,
Toro,Cherry Creek,150 Clayton Ln Ste B,Denver,CO,80206,0101000020E610000092184EE3283D5AC0FEBF458204DC4340,ChIJxT4AIcp_bIcRL_rWb-gwyoY,
Townline BBQ,Honest Man Hospitality HQ,3593 Montauk Hwy,Sagaponack,NY,11962,,ChIJ7RE7YDq86IkRDGtyIsrUaXU,
Townline BBQ,Sagaponack,3593 Montauk Hwy,Sagaponack,NY,11962,0101000020E61000007ADD2230D61052C07DCD72D9E8784440,ChIJ7RE7YDq86IkRDGtyIsrUaXU,
Toy Soldier,Financial,52 Belden Pl,San Francisco,CA,94104,0101000020E6100000518F238CD5995EC0612DE34B4DE54240,ChIJtT_kKIqAhYAR8kotss7-lA8,
Trellis Cafe & Bar,SOMA,981 Mission St,San Francisco,CA,94103,0101000020E6100000F45117541E9A5EC0815EE34403E44240,ChIJY0EnjzaBhYARVDEBQc2PdKM,
Trick Dog,Mission,3010 20th St,San Francisco,CA,94110,0101000020E61000003D3723394F9A5EC088F546AD30E14240,ChIJFc-4Pzd-j4ARf66cV7PRZxw,
Troya,Pacific Heights,2125 Fillmore St,San Francisco,CA,94115,0101000020E6100000209D6A4AC89B5EC0E82B958910E54240,ChIJZUcfNsaAhYARZ4b7QZiwaRc,
Tutti,Downtown,700 King St suite a,Charleston,SC,29403,0101000020E61000000667F0F78BFC53C018213CDA38664040,ChIJm2S3LFl7_ogR-dSlRIN67EU,
Twin Tails,Columbus Circle,10 Columbus Cir,New York,NY,10019,0101000020E61000007B377D5AEC7E52C0166359FE62624440,ChIJbxASGTNZwokR9eIMYL28EQE,
Twist Bar,Chelsea,164 9th Ave,New York,NY,10011,,ChIJL8iG0HNZwokR70zQBzoMKTc,
Two Hands Williamsburg,Williamsburg,262 Kent Ave,Brooklyn,NY,11249,0101000020E61000009D05CA43DB7D52C095AFC648AA5B4440,ChIJ256pFiBawokR-JFcFPAz7Ig,
Umbra,Bushwick,785 Hart St,Brooklyn,NY,11237,0101000020E6100000F5F983DC207B52C076E61E12BE594440,ChIJR_kku1tdwokROHIILkAiqwk,
Uncork,Wraggborough,476 King St,Charleston,SC,29403,0101000020E6100000E22021CA17FC53C00E1714611E654040,ChIJBUxFNWp6_ogRbCCh69ktiXo,
Unregular Bakery,Union Square,124 4th Ave,New York,NY,10003,0101000020E6100000A91BF1155E7F52C0C416D04FD95D4440,ChIJ52QMLUtZwokRZwW4R7FUo2M,
Unregular Pizza,Lower East Side,Essex Market – 88 Essex St,New York,NY,10002,0101000020E6100000526861303E7F52C0B20766F0E85B4440,ChIJlZhb1NhZwokRZ-xeod509HE,
Unregular Pizza,Midtown,14 E 37th Street,New York,NY,10016,0101000020E6100000C649CE80DD7E52C0B906C4CFFD5F4440,ChIJW2boKvdZwokRAYw2cJwEH9I,
Unregular Pizza,Union Square,135 4th Avenue,New York,NY,10003,0101000020E6100000BCB9495F557F52C04BB6E902EE5D4440,ChIJY5XrfwVZwokRw3jqTvqqtSA,
Unregular Pizza,Upper East Side,1132 Lexington Ave,New York,NY,10075,0101000020E61000002846F1A1647D52C0FC7190CA2A634440,ChIJfxzCCUBZwokR5uTiL9Gm9U4,
Upside,Nolita,51 Spring Street,New York,NY,10012,0101000020E61000004E0CC9C9C47F52C05C7171546E5C4440,ChIJJ4RaxFlZwokRPhaSd7t35H0,
Upstate Stock,Williamsburg,2 Berry St,Brooklyn,NY,11249,0101000020E6100000A2467C821F7D52C08008162C7A5C4440,ChIJuc3ZQENZwokRZcX6QOJdqVA,
Uptown Social,Downtown,587 King St,Charleston,SC,29403,0101000020E6100000B77C24253DFC53C02446CF2D74654040,ChIJK_IU5Gl6_ogRSRZ2slY7U48,
Urban Farmer Denver,LoDo,1659 Wazee St,Denver,CO,80202,0101000020E6100000D1F18755F23F5AC033AF7EC74BE04340,ChIJpZERZMN4bIcRBzONa01GT7E,
Veranda Lounge,Downtown,61 State St,Charleston,SC,29401,,ChIJaZ77_iZ7_ogRkIbToV7u2Hs,
Verde,Avondale,13 Magnolia Rd,Charleston,SC,29407,0101000020E6100000B14E95EF19FF53C04DC0AF9124644040,ChIJGXy4c8J7_ogR3zm4tOX3Bc4,
Verde,Belle Hall,616 Long Point Rd A,Mt Pleasant,SC,29464,0101000020E6100000BBB54C86E3F653C09485AFAF756B4040,ChIJ5bKJ9dtx_ogRC2LndtxGrNM,
Verde,CHS Airport,5500 International Blvd,North Charleston,SC,29418,0101000020E6100000B37E33315D0254C0302FC03E3A714040,ChIJK_CSR6Bl_ogRvvcG30aQ4k4,
Verde,King Street,433 King St,Charleston,SC,29403,0101000020E6100000E36BCF2C09FC53C01AA4E029E4644040,ChIJg7b6WRN6_ogRMxXw1kPkUEM,
Verde,Mount Pleasant,730 Coleman Boulevard,Mount Pleasant,SC,29464,0101000020E6100000B1DB679599F753C067EE21E17B654040,ChIJVXYimARx_ogRVlpbo6vVfx8,
Verde,MUSC - Ashley River Tower,25 Courtenay Dr,Charleston,SC,29425,0101000020E6100000B1C05774EBFC53C0F72004E44B644040,ChIJsxvhLsx7_ogRcJd0BK1G7Yg,
Verde,MUSC Main Hospital,171 Ashley Ave,Charleston,SC,29425,0101000020E6100000505436ACA9FC53C0F25CDF8783644040,ChIJsxvhLsx7_ogRcJd0BK1G7Yg,
Verde,Park Circle,4731 Mixson Avenue,North Charleston,SC,29405,0101000020E61000001D75745C8DFF53C03B3602F1BA704040,ChIJK_CSR6Bl_ogRvvcG30aQ4k4,
Veselka,East Village,144 2nd Ave,New York,NY,10003,0101000020E6100000EE78CADF2C7F52C054E6CF1C505D4440,ChIJlxDiXJxZwokRp4HHbeYqXXU,
Veselka Grand Central,Grand Central,89 E 42nd St,New York,NY,10017,0101000020E610000071033E3F8C7E52C0761893FE5E604440,ChIJVZ111KNZwokRisf1cc9jgxg,
Veselka Williamsburg,Williamsburg,646 Lorimer St,Brooklyn,NY,11211,0101000020E610000059378269BE7C52C0A7BCB354B15B4440,ChIJZyqIQwBZwokR1lSPyPdTLoM,
Vineapple,Brooklyn Heights,71 Pineapple St,Brooklyn,NY,11201,0101000020E6100000DC6B41EF8D7F52C0A9FFEECA63594440,ChIJkdevwDdawokR0j_3ECiQ8rE,
Virginia's,East Village,200 E 3rd St,New York,NY,10009,0101000020E6100000F12DAC1BEF7E52C02315C616825C4440,ChIJVZXlLHdZwokR9Vd3zCwFaqQ,
Wabi Nori Hand Roll Bar,Lower East Side,115 Essex St,New York,NY,10002,0101000020E61000000BF7802F3B7F52C0A544B7031A5C4440,ChIJSU8szcZZwokRurWGO4cm_3g,
Wenwen,Greenpoint,1025 Manhattan Ave,Brooklyn,NY,11222,0101000020E6100000D120054F217D52C03E5D273FF35D4440,ChIJmcr2IF9ZwokRr-u_-UTxju4,
White Horse Tavern,West Village,567 Hudson St,New York,NY,10014,0101000020E610000095366159658052C063185CD02B5E4440,ChIJGfAs0ZRZwokR584EB4uBkyU,
Wild Common,Cannonborough Elliotborough,Left Side,Charleston,SC,29403,0101000020E6100000234C512E8DFC53C056A7B9CB34654040,ChIJzUn6Qi17_ogRX1VX24enKTE,
Wild East Brewing Co.,Gowanus,623 Sackett St,Brooklyn,NY,11217,0101000020E6100000D16ACFA9F37E52C042A98677DD564440,ChIJCb9dhqVbwokRRWJzMd-IdYk,
Wildflower,Chelsea,505 W 23rd St,New York,NY,10011,0101000020E6100000C36169E0478052C009FCE1E7BF5F4440,ChIJnReZJQBZwokRRwOUbuV7JzE,
Wild Taco Denver,Berkeley,4499 W 38th Ave,Denver,CO,80212,0101000020E6100000DB53CD07DF425AC0527FBDC282E24340,ChIJDXN_xtGHa4cRO1YlWuG53qY,
Wine:30,Nomad,41 E 30th St,New York,NY,10016,0101000020E6100000FF942A51F67E52C0E48409A3595F4440,ChIJiUAH6adZwokRfDpIF52xwuo,
WINNER Bakery,Bakery,367 7th Ave,Brooklyn,NY,11215,0101000020E610000013C08B2DDE7E52C0328ACE1742554440,ChIJg8UZJyNbwokR0-LkfR8MPJQ,
WINNER Butcher,Park Slope,192 5th Ave,Brooklyn,NY,11217,0101000020E61000000F38B45FBC7E52C09ACDBAEBA7564440,ChIJvaJYgaVbwokR7sVs_le8J7Y,
WINNER in the Park,Park Slope,40 West Dr,Brooklyn,NY,11215,0101000020E610000004A768E62E7E52C0E8D631D032554440,ChIJActbacRbwokROX-Id6MuxSY,
Woodie Fisher,LoDo,1999 Chestnut Pl #100,Denver,CO,80202,0101000020E6100000DFA815A6EF3F5AC04F1F813FFCE04340,ChIJ97BI5sV5bIcRbxRz-Unx0fU,
Work & Class,RiNo,2500 Larimer St,Denver,CO,80205,0101000020E61000002642D94A1E3F5AC0E0DFA0BDFAE04340,ChIJS7FA8d94bIcR0Yx7VLagdMo,
X-Golf,Williamsburg,105 N 13th St,Brooklyn,NY,11249,0101000020E61000006FB5CB9A317D52C02B2E0379815C4440,ChIJeYgCuyJZwokR1g2Im-QCgtk,
Yingtao (Bar Only),Hell's Kitchen,805 9th Ave,New York,NY,10019,0101000020E61000005B5EB9DE367F52C05E2ADB2C03624440,ChIJkYkkoh1ZwokRE01ymVZhhpg,
Za-Ya,Bushwick,321 Starr St Suite D,Brooklyn,NY,11237,0101000020E61000003B2064B4E97A52C0D1C144CDA15A4440,ChIJA5X-O_NfwokRuYuGvy82R_I,
Zillions Pizza,Hell's Kitchen,360 W 42nd St,New York,NY,10036,0101000020E6100000349ABB30837F52C087C98C4F09614440,ChIJ0fMzPqxZwokRANQQd_Ru5O0,
ZOË,SOMA,579 Howard St,San Francisco,CA,94105,,ChIJl1L3AAqBhYARfrEds4G_pEU,
Zou Zou's,Hudson Yards,385 9th Ave Suite 85,New York,NY,10001,0101000020E61000003E2138E2E37F52C0C246465D67604440,ChIJKVbn75VZwokRLdlBWe5rbtU,